"duty_station","type","parent","street","city","state","zip","address","phone","url"
"Atlanta","Field Office","","1500 Centre Parkway","Atlanta","GA","30344","1500 Centre Parkway, Atlanta, GA 30344","404-629-4100","https://www.cbp.gov/about/contact/ports/field-office/atlanta"
"Charleston, South Carolina - 1601","Port of Entry","Atlanta","200 East Bay Street","Charleston","SC","29401","200 East Bay Street, Charleston, SC 29401","843-579-6500","https://www.cbp.gov/about/contact/ports/charleston-south-carolina-1601"
"Columbia, South Carolina - 1604","Port of Entry","Atlanta","2533A Airport Boulevard","West Columbia","SC","29170","2533A Airport Boulevard, West Columbia, SC 29170","803-822-5251","https://www.cbp.gov/about/contact/ports/columbia-south-carolina-1604"
"Myrtle Beach International Airport, South Carolina - 1681","Port of Entry","Atlanta","1100 Jetport Road","Myrtle Beach","SC","29577","1100 Jetport Road, Myrtle Beach, SC 29577","","https://www.cbp.gov/about/contact/ports/myrtle-beach-international-airport-south-carolina-1681"
"Greenville-Spartanburg, South Carolina - 1603","Port of Entry","Atlanta","150 A West Phillips Road","Greer","SC","29650","150 A West Phillips Road, Greer, SC 29650","864-877-8006","https://www.cbp.gov/about/contact/ports/greenville-spartanburg-south-carolina-1603"
"Georgetown, South Carolina - 1602","Port of Entry","Atlanta","State Ports Authority, Pier 31","Georgetown","SC","29442","State Ports Authority, Pier 31, Georgetown, SC 29442","","https://www.cbp.gov/about/contact/ports/georgetown-south-carolina-1602"
"Savannah, Georgia - 1703","Port of Entry","Atlanta","139 Southern Blvd","Savannah","GA","31405","139 Southern Blvd, Savannah, GA 31405","912-721-4840","https://www.cbp.gov/about/contact/ports/savannah-georgia-1703"
"Brunswick, Georgia - 1701","Port of Entry","Atlanta","700 Gloucester Street, 2nd Floor","Brunswick","GA","31520","700 Gloucester Street, 2nd Floor, Brunswick, GA 31520","912-262-6692","https://www.cbp.gov/about/contact/ports/brunswick-georgia-1701"
"Greensboro/Winston-Salem, North Carolina - 1502","Port of Entry","Atlanta","532-C North Regional Road","Greensboro","NC","27409","532-C North Regional Road, Greensboro, NC 27409","336-668-7272","https://www.cbp.gov/about/contact/ports/greensborowinston-salem-north-carolina-1502"
"Raleigh-Durham, North Carolina - 1503","Port of Entry","Atlanta","2400 John Brantley Boulevard","Morrisville","NC","27560","2400 John Brantley Boulevard, Morrisville, NC 27560","919-674-3400","https://www.cbp.gov/about/contact/ports/raleigh-durham-north-carolina-1503"
"Wilmington, North Carolina - 1501","Port of Entry","Atlanta","721 Medical Center Drive","Wilmington","NC","28401","721 Medical Center Drive, Wilmington, NC 28401","910-772-5900","https://www.cbp.gov/about/contact/ports/wilmington-north-carolina-1501"
"Charlotte, North Carolina - 1512","Port of Entry","Atlanta","1901 Cross beam Drive","Charlotte","NC","28217","1901 Cross beam Drive, Charlotte, NC 28217","704-329-6120","https://www.cbp.gov/about/contact/ports/charlotte-north-carolina-1512"
"Morehead City - Beaufort, North Carolina - 1511","Port of Entry","Atlanta","534H 35th Street","Morehead City","NC","28557","534H 35th Street, Morehead City, NC 28557","252-726-5845","https://www.cbp.gov/about/contact/ports/morehead-city-beaufort-north-carolina-1511"
"Baltimore Field Office","Field Office","","217 E. Redwood Street","Baltimore","MD","21202","217 E. Redwood Street, Baltimore, MD 21202","410-962-6200","https://www.cbp.gov/about/contact/ports/field-office/baltimore-field-office"
"Baltimore, Maryland - 1303","Port of Entry","Baltimore Field Office","40 South Gay Street","Baltimore","MD","21202","40 South Gay Street, Baltimore, MD 21202","410-962-2666","https://www.cbp.gov/about/contact/ports/baltimore-maryland-1303"
"Wilmington, Delaware - 1103","Port of Entry","Baltimore Field Office","908 New Churchman's Road","New Castle","DE","19720","908 New Churchman's Road, New Castle, DE 19720","","https://www.cbp.gov/about/contact/ports/wilmington-delaware-1103"
"Port of Washington-Dulles, Virginia - 5401","Port of Entry","Baltimore Field Office","1 Saarinen Circle","Sterling","VA","20166","1 Saarinen Circle, Sterling, VA 20166","703-661-2800","https://www.cbp.gov/about/contact/ports/port-washington-dulles-virginia-5401"
"Charleston, West Virginia - 1409","Port of Entry","Baltimore Field Office","280 Eagle Mountain Road","Charleston","WV","25311","280 Eagle Mountain Road, Charleston, WV 25311","304-344-8001","https://www.cbp.gov/about/contact/ports/charleston-west-virginia-1409"
"Norfolk-Newport News, Virginia - 1401","Port of Entry","Baltimore Field Office","101 E. Main Street","Norfolk","VA","23510","101 E. Main Street, Norfolk, VA 23510","757-533-4200","https://www.cbp.gov/about/contact/ports/norfolk-newport-news-virginia-1401"
"Richmond - Petersburg, Virginia - 1404","Port of Entry","Baltimore Field Office","5707 Huntsman Road, Suite 104","Richmond","VA","23250","5707 Huntsman Road, Suite 104, Richmond, VA 23250","804-226-9675","https://www.cbp.gov/about/contact/ports/richmond-petersburg-virginia-1404"
"New River Valley Airport, Virginia - 1412","Port of Entry","Baltimore Field Office","No personnel on site.","Dublin","VA","24084","No personnel on site., Dublin, VA 24084","804-226-9675","https://www.cbp.gov/about/contact/ports/new-river-valley-airport-virginia-1412"
"Front Royal, Virginia - 1410","Port of Entry","Baltimore Field Office","No CBP personnel on site.","Front Royal","VA","22630","No CBP personnel on site., Front Royal, VA 22630","804-226-9675","https://www.cbp.gov/about/contact/ports/front-royal-virginia-1410"
"Philadelphia, Pennsylvania - 1101","Port of Entry","Baltimore Field Office","200 Chestnut Street","Philadelphia","PA","19106","200 Chestnut Street, Philadelphia, PA 19106","215-717-5800","https://www.cbp.gov/about/contact/ports/philadelphia-pennsylvania-1101"
"Harrisburg, Pennsylvania - 1109","Port of Entry","Baltimore Field Office","Port of Harrisburg","Mechanicsburg","PA","17055","Port of Harrisburg, Mechanicsburg, PA 17055","717-691-7136","https://www.cbp.gov/about/contact/ports/harrisburg-pennsylvania-1109"
"Pittsburgh, Pennsylvania - 1104","Port of Entry","Baltimore Field Office","Pittsburgh International Airport","Pittsburgh","PA","15231","Pittsburgh International Airport, Pittsburgh, PA 15231","","https://www.cbp.gov/about/contact/ports/pittsburgh-pennsylvania-1104"
"Boston","Field Office","","10 Causeway St","Boston","MA","02222","10 Causeway St, Boston, MA 02222","617-565-6208","https://www.cbp.gov/about/contact/ports/field-office/boston"
"Derby Line, Vermont - 0209","Port of Entry","Boston","Interstate 91","Derby Line","VT","05830","Interstate 91, Derby Line, VT 05830","","https://www.cbp.gov/about/contact/ports/derby-line-vermont-0209"
"St. Albans, Vermont - 0201","Port of Entry","Boston","50 S. Main Street, Suite 100R","St. Albans","VT","05478","50 S. Main Street, Suite 100R, St. Albans, VT 05478","802-527-6527","https://www.cbp.gov/about/contact/ports/st-albans-vermont-0201"
"Richford, Vermont - 0203","Port of Entry","Boston","705 Province Street","Richford","VT","05476","705 Province Street, Richford, VT 05476","802-848-7786","https://www.cbp.gov/about/contact/ports/richford-vermont-0203"
"Norton, Vermont - 0211","Port of Entry","Boston","Rt. 114 at the Border","Norton","VT","05907","Rt. 114 at the Border, Norton, VT 05907","","https://www.cbp.gov/about/contact/ports/norton-vermont-0211"
"Beecher Falls, Vermont - 0206","Port of Entry","Boston","Rt. 253 at the Border","Beecher Falls","VT","05902","Rt. 253 at the Border, Beecher Falls, VT 05902","","https://www.cbp.gov/about/contact/ports/beecher-falls-vermont-0206"
"Burlington International Airport, Vermont - 0207","Port of Entry","Boston","228 Aviation Ave. - Suite 100","South Burlington","VT","05403","228 Aviation Ave. - Suite 100, South Burlington, VT 05403","802-864-5181","https://www.cbp.gov/about/contact/ports/burlington-international-airport-vermont-0207"
"Highgate Springs, Vermont - 0212","Port of Entry","Boston","Interstate 89 at the Border","Highgate Springs","VT","05460","Interstate 89 at the Border, Highgate Springs, VT 05460","802-868-2778","https://www.cbp.gov/about/contact/ports/highgate-springs-vermont-0212"
"New Bedford, Massachusetts - 0405","Port of Entry","Boston","37 Second Street","New Bedford","MA","02740","37 Second Street, New Bedford, MA 02740","","https://www.cbp.gov/about/contact/ports/new-bedford-massachusetts-0405"
"Plymouth (New Bedford), Massachusetts - 0406","Port of Entry","Boston","37 Second Street","New Bedford","MA","02740","37 Second Street, New Bedford, MA 02740","","https://www.cbp.gov/about/contact/ports/plymouth-new-bedford-massachusetts-0406"
"Logan Airport, Massachusetts - 0417","Port of Entry","Boston","500 Terminal E","East Boston","MA","02128","500 Terminal E, East Boston, MA 02128","","https://www.cbp.gov/about/contact/ports/logan-airport-massachusetts-0417"
"Fall River (New Bedford), Massachusetts - 0407","Port of Entry","Boston","37 Second Street","New Bedford","MA","02740","37 Second Street, New Bedford, MA 02740","","https://www.cbp.gov/about/contact/ports/fall-river-new-bedford-massachusetts-0407"
"Gloucester, Massachusetts - 0404","Port of Entry","Boston","100 Cummings Center - Room 422A","Beverly","MA","01915","100 Cummings Center - Room 422A, Beverly, MA 01915","","https://www.cbp.gov/about/contact/ports/gloucester-massachusetts-0404"
"Boston, Massachusetts - 0401","Port of Entry","Boston","10 Causeway Street - Room 603","Boston","MA","02222","10 Causeway Street - Room 603, Boston, MA 02222","617-565-6149","https://www.cbp.gov/about/contact/ports/boston-massachusetts-0401"
"Salem (Gloucester), Massachusetts - 0408","Port of Entry","Boston","100 Cummings Center - Room 422A","Beverly","MA","01915","100 Cummings Center - Room 422A, Beverly, MA 01915","","https://www.cbp.gov/about/contact/ports/salem-gloucester-massachusetts-0408"
"Worcester, Massachusetts - 0403","Port of Entry","Boston","120 Front Street - Suite 800","Worcester","MA","01608","120 Front Street - Suite 800, Worcester, MA 01608","","https://www.cbp.gov/about/contact/ports/worcester-massachusetts-0403"
"Springfield, Massachusetts - 0402","Port of Entry","Boston","1414 Main Street","Springfield","MA","01144","1414 Main Street, Springfield, MA 01144","","https://www.cbp.gov/about/contact/ports/springfield-massachusetts-0402"
"Lawrence (Gloucester), Massachusetts - 0416","Port of Entry","Boston","100 Cummings Center - Room 422A","Beverly","MA","01915","100 Cummings Center - Room 422A, Beverly, MA 01915","","https://www.cbp.gov/about/contact/ports/lawrence-gloucester-massachusetts-0416"
"Vanceboro, Maine - 0105","Port of Entry","Boston","133 Water Street","Vanceboro","ME","04491","133 Water Street, Vanceboro, ME 04491","207-788-3907","https://www.cbp.gov/about/contact/ports/vanceboro-maine-0105"
"Van Buren, Maine - 0108","Port of Entry","Boston","173 Acadian Way","Van Buren","ME","04785","173 Acadian Way, Van Buren, ME 04785","","https://www.cbp.gov/about/contact/ports/van-buren-maine-0108"
"Bath, Maine - 0111","Port of Entry","Boston","155 Gannett Drive","South Portland","ME","04106","155 Gannett Drive, South Portland, ME 04106","","https://www.cbp.gov/about/contact/ports/bath-maine-0111"
"Bangor, Maine - 0102","Port of Entry","Boston","267a Godfrey Blvd","Bangor","ME","04401","267a Godfrey Blvd, Bangor, ME 04401","","https://www.cbp.gov/about/contact/ports/bangor-maine-0102"
"Fort Kent, Maine - 0110","Port of Entry","Boston","401 West Main St.","Fort Kent","ME","04743","401 West Main St., Fort Kent, ME 04743","207-834-5255","https://www.cbp.gov/about/contact/ports/fort-kent-maine-0110"
"Bar Harbor, Maine - 0112","Port of Entry","Boston","267a Godfrey Blvd.","Bangor","ME","04401","267a Godfrey Blvd., Bangor, ME 04401","","https://www.cbp.gov/about/contact/ports/bar-harbor-maine-0112"
"Eastport, Maine - 0103","Port of Entry","Boston","141 Water Street","Eastport","ME","04631","141 Water Street, Eastport, ME 04631","","https://www.cbp.gov/about/contact/ports/eastport-maine-0103"
"Portland, Maine - 0101","Port of Entry","Boston","155 Gannett Drive","South Portland","ME","04106","155 Gannett Drive, South Portland, ME 04106","","https://www.cbp.gov/about/contact/ports/portland-maine-0101"
"Bridgewater, Maine - 0127","Port of Entry","Boston","454 Boundary Line Rd","Bridgewater","ME","04735","454 Boundary Line Rd, Bridgewater, ME 04735","207-425-2881","https://www.cbp.gov/about/contact/ports/bridgewater-maine-0127"
"Fort Fairfield, Maine - 0107","Port of Entry","Boston","4 Boundary Line Road","Fort Fairfield","ME","04742","4 Boundary Line Road, Fort Fairfield, ME 04742","207-473-7474","https://www.cbp.gov/about/contact/ports/fort-fairfield-maine-0107"
"Jonesport (Calais), Maine - 0122","Port of Entry","Boston","3 Customs Street","Calais","ME","04619","3 Customs Street, Calais, ME 04619","","https://www.cbp.gov/about/contact/ports/jonesport-calais-maine-0122"
"Searsport, Maine - 0152","Port of Entry","Boston","267a Godfrey Blvd.","Bangor","ME","04401","267a Godfrey Blvd., Bangor, ME 04401","207-947-7861","https://www.cbp.gov/about/contact/ports/belfast-maine-0132"
"Rockland (Belfast), Maine - 0121","Port of Entry","Boston","267a Godfrey Blvd.","Bangor","ME","04401","267a Godfrey Blvd., Bangor, ME 04401","","https://www.cbp.gov/about/contact/ports/rockland-belfast-maine-0121"
"Jackman, Maine - 0104","Port of Entry","Boston","2614 Main Street","Sandy Bay Twp.","ME","04945","2614 Main Street, Sandy Bay Twp., ME 04945","","https://www.cbp.gov/about/contact/ports/jackman-maine-0104"
"Madawaska, Maine - 0109","Port of Entry","Boston","108 Four Corners Crossing","Madawaska","ME","04756","108 Four Corners Crossing, Madawaska, ME 04756","207-728-4376","https://www.cbp.gov/about/contact/ports/madawaska-maine-0109"
"Calais, Maine - 0115","Port of Entry","Boston","180 International Avenue","Calais","ME","04619","180 International Avenue, Calais, ME 04619","207-904-3000","https://www.cbp.gov/about/contact/ports/calais-maine-0115"
"Houlton, Maine - 0106","Port of Entry","Boston","Route 95 at the Border","Houlton","ME","04730","Route 95 at the Border, Houlton, ME 04730","","https://www.cbp.gov/about/contact/ports/houlton-maine-0106"
"Limestone, Maine - 0118","Port of Entry","Boston","410 Grand Falls Road","Limestone","ME","04750","410 Grand Falls Road, Limestone, ME 04750","207-325-4769","https://www.cbp.gov/about/contact/ports/limestone-maine-0118"
"Manchester (User Fee Airport), New Hampshire - 0182","Port of Entry","Boston","1 Garside Way","Manchester","NH","03103","1 Garside Way, Manchester, NH 03103","","https://www.cbp.gov/about/contact/ports/manchester-user-fee-airport-new-hampshire-0182"
"Portsmouth, New Hampshire - 0131","Port of Entry","Boston","42 Airline Avenue","Portsmouth","NH","03801","42 Airline Avenue, Portsmouth, NH 03801","","https://www.cbp.gov/about/contact/ports/portsmouth-new-hampshire-0131"
"Providence, Rhode Island - 0502","Port of Entry","Boston","300 Jefferson Boulevard, Suite 106","Warwick","RI","02886","300 Jefferson Boulevard, Suite 106, Warwick, RI 02886","401-732-6701","https://www.cbp.gov/about/contact/ports/providence-rhode-island-0502"
"Newport, Rhode Island - 0501","Port of Entry","Boston","300 Jefferson Blvd, Suite 106","Warwick","RI","02886","300 Jefferson Blvd, Suite 106, Warwick, RI 02886","","https://www.cbp.gov/about/contact/ports/newport-rhode-island-0501"
"Bridgeport, Connecticut - 0410","Port of Entry","Boston","35 Philmack Drive","Middletown","CT","06457","35 Philmack Drive, Middletown, CT 06457","860-632-2246","https://www.cbp.gov/about/contact/ports/bridgeport-connecticut-0410"
"New London (New Haven), Connecticut - 0413","Port of Entry","Boston","35 Philmack Drive","Middletown","CT","06457","35 Philmack Drive, Middletown, CT 06457","860-632-2246","https://www.cbp.gov/about/contact/ports/new-london-connecticut-0413"
"Hartford, Connecticut - 0411","Port of Entry","Boston","Bradley International Airport","Windsor Locks","CT","06096","Bradley International Airport, Windsor Locks, CT 06096","860-292-1314","https://www.cbp.gov/about/contact/ports/hartford-connecticut-0411"
"New Haven, Connecticut - 0412","Port of Entry","Boston","35 Philmack Drive","Middletown","CT","06457","35 Philmack Drive, Middletown, CT 06457","860-632-2246","https://www.cbp.gov/about/contact/ports/new-haven-connecticut-0412"
"Waterbury Oxford Airport - 0482","Port of Entry","Boston","1 Juliano Drive","Oxford","CT","06478","1 Juliano Drive, Oxford, CT 06478","203-262-6027","https://www.cbp.gov/about/contact/ports/waterbury-oxford-airport-0482"
"Buffalo","Field Office","","Buffalo Field Office","Buffalo","NY","14225","Buffalo Field Office, Buffalo, NY 14225","716-626-0400","https://www.cbp.gov/about/contact/ports/field-office/buffalo"
"Rochester, New York - 0903","Port of Entry","Buffalo","1200 Brooks Avenue","Rochester","NY","14624","1200 Brooks Avenue, Rochester, NY 14624","585-263-6293","https://www.cbp.gov/about/contact/ports/rochester-new-york-0903"
"Buffalo, New York - 0901","Port of Entry","Buffalo","726 Exchange Street","Buffalo","NY","14210","726 Exchange Street, Buffalo, NY 14210","716-843-8521","https://www.cbp.gov/about/contact/ports/buffalo-new-york-0901"
"Trout River, New York - 0715","Port of Entry","Buffalo","17013 State Route 30","Constable","NY","12926","17013 State Route 30, Constable, NY 12926","","https://www.cbp.gov/about/contact/ports/trout-river-new-york-0715"
"Syracuse, New York - 0906","Port of Entry","Buffalo","152 Air Cargo Road","N. Syracuse","NY","13212","152 Air Cargo Road, N. Syracuse, NY 13212","","https://www.cbp.gov/about/contact/ports/syracuse-new-york-0906"
"Champlain, New York - 0712","Port of Entry","Buffalo","237 West Service Road","Champlain","NY","12919","237 West Service Road, Champlain, NY 12919","518-298-8311","https://www.cbp.gov/about/contact/ports/champlain-new-york-0712"
"Alexandria Bay, New York - 0708","Port of Entry","Buffalo","46735 Interstate Route 81","Alexandria Bay","NY","13607","46735 Interstate Route 81, Alexandria Bay, NY 13607","315-482-2065","https://www.cbp.gov/about/contact/ports/alexandria-bay-new-york-0708"
"Albany, New York - 1002","Port of Entry","Buffalo","445 Broadway, Room 216","Albany","NY","12207","445 Broadway, Room 216, Albany, NY 12207","518-431-0200","https://www.cbp.gov/about/contact/ports/albany-new-york-1002"
"Massena, New York - 0704","Port of Entry","Buffalo","30M Seaway International Bridge","Rooseveltown","NY","13683","30M Seaway International Bridge, Rooseveltown, NY 13683","315-268-7430","https://www.cbp.gov/about/contact/ports/massena-new-york-0704"
"Binghamton, New York - 0981","Port of Entry","Buffalo","2534 Airport Road","Johnson City","NY","13790","2534 Airport Road, Johnson City, NY 13790","","https://www.cbp.gov/about/contact/ports/binghamton-new-york-0981"
"Ogdensburg, New York - 0701","Port of Entry","Buffalo","Ogdensburg Bridge Plaza","Ogdensburg","NY","13669","Ogdensburg Bridge Plaza, Ogdensburg, NY 13669","","https://www.cbp.gov/about/contact/ports/ogdensburg-new-york-0701"
"Cape Vincent, New York - 706","Port of Entry","Buffalo","177 North James Street","Cape Vincent","NY","13618","177 North James Street, Cape Vincent, NY 13618","315-654-2781","https://www.cbp.gov/about/contact/ports/cape-vincent-new-york-706"
"Chicago","Field Office","","610 S. Canal Street","Chicago","IL","60607","610 S. Canal Street, Chicago, IL 60607","312-542-5700","https://www.cbp.gov/about/contact/ports/field-office/chicago"
"South Dakota Sioux Falls Regional Airport – Joe Foss Field - 3502","Port of Entry","Chicago","2801 N. Jaycee Lane","Sioux Falls","SD","57104","2801 N. Jaycee Lane, Sioux Falls, SD 57104","605-338-4384","https://www.cbp.gov/about/contact/ports/south-dakota-sioux-falls-regional-airport-joe-foss-field-3502"
"Spirit of St. Louis Airport, Missouri - 4506","Port of Entry","Chicago","18250 Edison Avenue","Chesterfield","MO","63005","18250 Edison Avenue, Chesterfield, MO 63005","636-238-8953","https://www.cbp.gov/about/contact/ports/spirit-st-louis-airport-missouri-4506"
"Springfield, Missouri - 4505","Port of Entry","Chicago","5000 W Kearney","Springfield","MO","65803","5000 W Kearney, Springfield, MO 65803","417-868-0545","https://www.cbp.gov/about/contact/ports/springfield-missouri-4505"
"St. Louis, Missouri - 4503","Port of Entry","Chicago","4349 Woodson Rd","St. Louis","MO","63134","4349 Woodson Rd, St. Louis, MO 63134","314-429-8100","https://www.cbp.gov/about/contact/ports/st-louis-missouri-4503"
"Kansas City, Missouri - 4501","Port of Entry","Chicago","1 Kansas City Boulevard","Kansas City","MO","64153","1 Kansas City Boulevard, Kansas City, MO 64153","816-780-6100","https://www.cbp.gov/about/contact/ports/kansas-city-missouri-4501"
"Minneapolis-St. Paul, Minnesota - 3501","Port of Entry","Chicago","5600 W American Blvd","Bloomington","MN","55437","5600 W American Blvd, Bloomington, MN 55437","952-857-3100","https://www.cbp.gov/about/contact/ports/minneapolis-st-paul-minnesota-3501"
"Duluth, MN and Superior, WI, Minnesota - 3510","Port of Entry","Chicago","Federal Building, Room 217","Duluth","MN","55802","Federal Building, Room 217, Duluth, MN 55802","218-720-5203","https://www.cbp.gov/about/contact/ports/duluth-mn-and-superior-wi-minnesota-3510"
"Rochester International Airport, Rochester, Minnesota - 3581","Port of Entry","Chicago","7600 Helgerson Dr SW","Rochester","MN","55902","7600 Helgerson Dr SW, Rochester, MN 55902","507-285-5278","https://www.cbp.gov/about/contact/ports/rochester-international-airport-rochester-minnesota-3581"
"Des Moines, Iowa - 3513","Port of Entry","Chicago","6000 Fleur Drive","Des Moines","IA","50321","6000 Fleur Drive, Des Moines, IA 50321","515-284-4403","https://www.cbp.gov/about/contact/ports/des-moines-iowa-3513"
"Fort Wayne, Indiana - 4183","Port of Entry","Chicago","4410 Altitude Drive","Fort Wayne","IN","46809","4410 Altitude Drive, Fort Wayne, IN 46809","260-747-7276","https://www.cbp.gov/about/contact/ports/fort-wayne-indiana-4183"
"Owensboro, KY / Evansville, IN - 4116","Port of Entry","Chicago","101 N.W. Martin Luther King, Jr. Boulevard","Evansville","IN","47708","101 N.W. Martin Luther King, Jr. Boulevard, Evansville, IN 47708","","https://www.cbp.gov/about/contact/ports/evansville-indiana-4116"
"Indianapolis, Indiana - 4110","Port of Entry","Chicago","1945 South Banner Avenue","Indianapolis","IN","46241","1945 South Banner Avenue, Indianapolis, IN 46241","317-241-9780","https://www.cbp.gov/about/contact/ports/indianapolis-indiana-4110"
"Wichita, Kansas - 4504","Port of Entry","Chicago","1700 Airport Road","Wichita","KS","67209","1700 Airport Road, Wichita, KS 67209","316-613-4194","https://www.cbp.gov/about/contact/ports/wichita-kansas-4504"
"Omaha, Nebraska - 3512","Port of Entry","Chicago","3737A Orville Plaza","Omaha","NE","68110","3737A Orville Plaza, Omaha, NE 68110","402-341-0240","https://www.cbp.gov/about/contact/ports/omaha-nebraska-3512"
"Racine, Wisconsin - 3708","Port of Entry","Chicago","3239 North Green Bay Road","Racine","WI","53404","3239 North Green Bay Road, Racine, WI 53404","262-633-0286","https://www.cbp.gov/about/contact/ports/racine-wisconsin-3708"
"Milwaukee, Wisconsin - 3701","Port of Entry","Chicago","4915 S. Howell Avenue","Milwaukee","WI","53207","4915 S. Howell Avenue, Milwaukee, WI 53207","414-486-7790","https://www.cbp.gov/about/contact/ports/milwaukee-wisconsin-3701"
"Green Bay, Wisconsin - 3703","Port of Entry","Chicago","2077 Airport Drive","Green Bay","WI","54313","2077 Airport Drive, Green Bay, WI 54313","920-496-0606","https://www.cbp.gov/about/contact/ports/green-bay-wisconsin-3703"
"Toledo-Sandusky-Port Clinton, Ohio - 4105","Port of Entry","Chicago","709 SE Catawba Rd.","Port Clinton","OH","43452","709 SE Catawba Rd., Port Clinton, OH 43452","","https://www.cbp.gov/about/contact/ports/toledo-sandusky-port-clinton-ohio-4105"
"Cincinnati, OH-Erlanger, KY, Kentucky - 4102","Port of Entry","Chicago","4243 Olympic Blvd.","Erlanger","KY","41018","4243 Olympic Blvd., Erlanger, KY 41018","859-282-6308","https://www.cbp.gov/about/contact/ports/cincinnati-oh-erlanger-ky-kentucky-4102"
"Ashtabula/Conneaut, Ohio - 4122","Port of Entry","Chicago","1170 Lake Avenue","Ashtabula","OH","44004","1170 Lake Avenue, Ashtabula, OH 44004","440-964-2010","https://www.cbp.gov/about/contact/ports/ashtabulaconneaut-ohio-4122"
"Columbus, Ohio - 4103","Port of Entry","Chicago","6431 Alum Creek Drive","Groveport","OH","43125","6431 Alum Creek Drive, Groveport, OH 43125","614-497-1865","https://www.cbp.gov/about/contact/ports/columbus-ohio-4103"
"Dayton, Ohio - 4104","Port of Entry","Chicago","3800 Wright Drive","Vandalia","OH","45377","3800 Wright Drive, Vandalia, OH 45377","937-890-7633","https://www.cbp.gov/about/contact/ports/dayton-ohio-4104"
"Cleveland, Ohio - 4101","Port of Entry","Chicago","6747 Engle Road","Middleburg Heights","OH","44130","6747 Engle Road, Middleburg Heights, OH 44130","440-891-3800","https://www.cbp.gov/about/contact/ports/cleveland-ohio-4101"
"Louisville, Kentucky - 4115","Port of Entry","Chicago","Louisville International Airport","Louisville","KY","40209","Louisville International Airport, Louisville, KY 40209","502-366-3398","https://www.cbp.gov/about/contact/ports/louisville-kentucky-4115"
"Lexington, Kentucky - 4184","Port of Entry","Chicago","Bluegrass Airport","Lexington","KY","40510","Bluegrass Airport, Lexington, KY 40510","","https://www.cbp.gov/about/contact/ports/lexington-kentucky-4184"
"Erie, Pennsylvania - 4106","Port of Entry","Chicago","Erie International Airport/Tom Ridge Field","Erie","PA","16505","Erie International Airport/Tom Ridge Field, Erie, PA 16505","814-833-1355","https://www.cbp.gov/about/contact/ports/erie-pennsylvania-4106"
"Peoria, Illinois - 3902","Port of Entry","Chicago","General Wayne A. Downing Peoria International Airport","Peoria","IL","61607","General Wayne A. Downing Peoria International Airport, Peoria, IL 61607","309-697-4329","https://www.cbp.gov/about/contact/ports/peoria-illinois-3902"
"Chicago Executive Airport, Wheeling, Illinois - 3983","Port of Entry","Chicago","26 E. Palatine Road","Wheeling","IL","60090","26 E. Palatine Road, Wheeling, IL 60090","847-894-7292","https://www.cbp.gov/about/contact/ports/chicago-executive-airport-wheeling-illinois-3983"
"Chicago, Illinois - 3901","Port of Entry","Chicago","5600 Pearl Street","Rosemont","IL","60018","5600 Pearl Street, Rosemont, IL 60018","847-928-3000","https://www.cbp.gov/about/contact/ports/chicago-illinois-3901"
"MidAmerica St. Louis Airport, Mascoutah, Illinois – 4581","Port of Entry","Chicago","8810 Richard Brauer Road","Mascoutah","IL","62258","8810 Richard Brauer Road, Mascoutah, IL 62258","618-566-5341","https://www.cbp.gov/about/contact/ports/midamerica-st-louis-airport-mascoutah-illinois-4581"
"Davenport, IA-Moline and Rock Island, IL, Illinois - 3908","Port of Entry","Chicago","3300 69th Avenue","Moline","IL","61265","3300 69th Avenue, Moline, IL 61265","309-799-8129","https://www.cbp.gov/about/contact/ports/davenport-ia-moline-and-rock-island-il-illinois-3908"
"Waukegan National Airport, Waukegan, Illinois - 3981","Port of Entry","Chicago","Waukegan National Airport","Waukegan","IL","60087","Waukegan National Airport, Waukegan, IL 60087","224-529-1468","https://www.cbp.gov/about/contact/ports/waukegan-national-airport-waukegan-illinois-3981"
"Rockford, Illinois - 3909","Port of Entry","Chicago","50 Airport Drive","Rockford","IL","61109","50 Airport Drive, Rockford, IL 61109","815-968-0661","https://www.cbp.gov/about/contact/ports/rockford-illinois-3909"
"DuPage Airport, West Chicago, Illinois - 3984","Port of Entry","Chicago","DuPage Airport","Chicago","IL","60185","DuPage Airport, Chicago, IL 60185","630-208-6490","https://www.cbp.gov/about/contact/ports/dupage-airport-west-chicago-illinois-3984"
"Appleton International Airport, Appleton, Wisconsin - 3781","Port of Entry","Chicago","W6400 Challenger Dr. Ste. 100","Appleton","WI","54914","W6400 Challenger Dr. Ste. 100, Appleton, WI 54914","920-968-2348","https://www.cbp.gov/about/contact/ports/appleton-international-airport-appleton-wisconsin-3781"
"Gary Chicago International Airport, Gary, Indiana - 3905","Port of Entry","Chicago","6001-A Airport Road","Gary","IN","46406","6001-A Airport Road, Gary, IN 46406","773-948-6330","https://www.cbp.gov/about/contact/ports/gary-chicago-international-airport-gary-indiana-3905"
"University of Illinois Willard Airport - 3987","Port of Entry","Chicago","Willard Airport at the University of Illinois","Savoy","IL","61874","Willard Airport at the University of Illinois, Savoy, IL 61874","217-729-7607","https://www.cbp.gov/about/contact/ports/university-illinois-willard-airport-3987"
"South Bend International Airport, South Bend, Indiana – 3986","Port of Entry","Chicago","South Bend International Airport (main passenger terminal building)","SouthBend","IN","46628","South Bend International Airport (main passenger terminal building), SouthBend, IN 46628","574-232-9650","https://www.cbp.gov/about/contact/ports/south-bend-international-airport-south-bend-indiana-3986"
"Sheboygan County Memorial Airport, Wisconsin - 3782","Port of Entry","Chicago","Sheboygan County Memorial Airport","Sheboygan Falls","WI","53085","Sheboygan County Memorial Airport, Sheboygan Falls, WI 53085","920-335-2225","https://www.cbp.gov/about/contact/ports/sheboygan-county-memorial-airport-wisconsin-3782"
"Port of Manitowoc, Manitowoc, Wisconsin - 3706","Port of Entry","Chicago","2077 Airport Drive","Green Bay","WI","54313","2077 Airport Drive, Green Bay, WI 54313","920-496-0606","https://www.cbp.gov/about/contact/ports/port-manitowoc-manitowoc-wisconsin-3706"
"Port of Marinette, Marinette, Wisconsin - 3702","Port of Entry","Chicago","2077 Airport Drive","Green Bay","WI","54313","2077 Airport Drive, Green Bay, WI 54313","920-496-0606","https://www.cbp.gov/about/contact/ports/port-marinette-marinette-wisconsin-3702"
"Detroit","Field Office","","985 Michigan Ave.","Detroit","MI","48226","985 Michigan Ave., Detroit, MI 48226","313-442-4460","https://www.cbp.gov/about/contact/ports/field-office/detroit"
"Sault Sainte Marie, Michigan - 3803","Port of Entry","Detroit","900 International Bridge Plaza","Sault Sainte Marie","MI","49783","900 International Bridge Plaza, Sault Sainte Marie, MI 49783","","https://www.cbp.gov/about/contact/ports/sault-sainte-marie-michigan-3803"
"Detroit Metropolitan Airport, Michigan - 3807","Port of Entry","Detroit","Edward H. McNamara Terminal","Detroit","MI","48242","Edward H. McNamara Terminal, Detroit, MI 48242","734-941-6180","https://www.cbp.gov/about/contact/ports/detroit-metropolitan-airport-michigan-3807"
"Battle Creek, Michigan - 3805","Port of Entry","Detroit","4950 Dickman Road","Battle Creek","MI","49037","4950 Dickman Road, Battle Creek, MI 49037","","https://www.cbp.gov/about/contact/ports/battle-creek-michigan-3805"
"Capital Region International Airport Lansing, Michigan - 3883","Port of Entry","Detroit","4100 Capital City Blvd.","Lansing","MI","48906","4100 Capital City Blvd., Lansing, MI 48906","","https://www.cbp.gov/about/contact/ports/capital-region-international-airport-lansing-michigan-3883"
"Detroit, Michigan - 3801","Port of Entry","Detroit","2810 B West Fort Street","Detroit","MI","48216","2810 B West Fort Street, Detroit, MI 48216","313-964-7830","https://www.cbp.gov/about/contact/ports/detroit-michigan-3801"
"Port Huron, Michigan - 3802","Port of Entry","Detroit","1410 Elmwood Street","Port Huron","MI","48060","1410 Elmwood Street, Port Huron, MI 48060","810-989-8800","https://www.cbp.gov/about/contact/ports/port-huron-michigan-3802"
"Grand Rapids, Michigan - 3806","Port of Entry","Detroit","6450 Air Cargo Drive SE","Grand Rapids","MI","49512","6450 Air Cargo Drive SE, Grand Rapids, MI 49512","","https://www.cbp.gov/about/contact/ports/grand-rapids-michigan-3806"
"Saginaw/Bay City/Flint, Michigan - 3804","Port of Entry","Detroit","8500 Garfield Rd. Suite 103","Freeland","MI","48623","8500 Garfield Rd. Suite 103, Freeland, MI 48623","","https://www.cbp.gov/about/contact/ports/saginawbay-cityflint-michigan-3804"
"El Paso","Field Office","","6070 Gateway Boulevard East","El Paso","TX","79905","6070 Gateway Boulevard East, El Paso, TX 79905","915-730-7000","https://www.cbp.gov/about/contact/ports/field-office/el-paso"
"Albuquerque, New Mexico - 2407","Port of Entry","El Paso","2200 Sunport Blvd. SE","Albuquerque","NM","87106","2200 Sunport Blvd. SE, Albuquerque, NM 87106","505-242-6475","https://www.cbp.gov/about/contact/ports/albuquerque-new-mexico-2407"
"Santa Teresa, New Mexico - 2408","Port of Entry","El Paso","170 Pete Domenici Hwy","Santa Teresa","NM","88008","170 Pete Domenici Hwy, Santa Teresa, NM 88008","575-874-7030","https://www.cbp.gov/about/contact/ports/santa-teresa-new-mexico-2408"
"Columbus, New Mexico - 2406","Port of Entry","El Paso","3981 State Highway 11","Columbus","NM","88029","3981 State Highway 11, Columbus, NM 88029","575-531-2686","https://www.cbp.gov/about/contact/ports/columbus-new-mexico-2406"
"Presidio, Texas - 2403","Port of Entry","El Paso","99400 Hwy 67 South","Presidio","TX","79845","99400 Hwy 67 South, Presidio, TX 79845","432-229-1051","https://www.cbp.gov/about/contact/ports/presidio-texas-2403"
"Marcelino Serna, Tornillo, Texas - 2404","Port of Entry","El Paso","1400 Lower Island Rd. (FM 1109)","Tornillo","TX","79853","1400 Lower Island Rd. (FM 1109), Tornillo, TX 79853","915-765-2800","https://www.cbp.gov/about/contact/ports/tornillo-texas-2404"
"El Paso, Texas - 2402","Port of Entry","El Paso","Bridge of the Americas Port of Entry","El Paso","TX","79905","Bridge of the Americas Port of Entry, El Paso, TX 79905","915-730-7000","https://www.cbp.gov/about/contact/ports/el-paso-texas-2402"
"Ysleta, El Paso, Texas - 2401","Port of Entry","El Paso","797 S. Zaragosa Rd.","El Paso","TX","79907","797 S. Zaragosa Rd., El Paso, TX 79907","915-872-4763","https://www.cbp.gov/about/contact/ports/ysleta-el-paso-texas-2401"
"Houston","Field Office","","2323 S. Shepherd #1300","Houston","TX","77019","2323 S. Shepherd #1300, Houston, TX 77019","713-387-7200","https://www.cbp.gov/about/contact/ports/field-office/houston"
"Oklahoma City, Oklahoma - 5504","Port of Entry","Houston","4300 Highline Blvd. Suite 250","Oklahoma City","OK","73108","4300 Highline Blvd. Suite 250, Oklahoma City, OK 73108","","https://www.cbp.gov/about/contact/ports/oklahoma-city-oklahoma-5504"
"Tulsa, Oklahoma - 5505","Port of Entry","Houston","2222 North Cargo Road","Tulsa","OK","74115","2222 North Cargo Road, Tulsa, OK 74115","","https://www.cbp.gov/about/contact/ports/tulsa-oklahoma-5505"
"Alliance Airport, Texas - 5583","Port of Entry","Houston","2221 Alliance Blvd.","Fort Worth","TX","76177","2221 Alliance Blvd., Fort Worth, TX 76177","","https://www.cbp.gov/about/contact/ports/alliance-airport-texas-5583"
"Midland, Texas - 5582","Port of Entry","Houston","9506 LaForce, 3rd Floor","Midland","TX","79711","9506 LaForce, 3rd Floor, Midland, TX 79711","","https://www.cbp.gov/about/contact/ports/midland-texas-5582"
"Freeport, Texas - 5311","Port of Entry","Houston","801 Navigation","Freeport","TX","77541","801 Navigation, Freeport, TX 77541","","https://www.cbp.gov/about/contact/ports/freeport-texas-5311"
"Lubbock, Texas - 5503","Port of Entry","Houston","Eastport, Lubbock International Airport","Lubbock","TX","79403","Eastport, Lubbock International Airport, Lubbock, TX 79403","","https://www.cbp.gov/about/contact/ports/lubbock-texas-5503"
"Dallas/Ft. Worth, Texas - 5501","Port of Entry","Houston","7501 Esters Blvd.,Suite 160","Irving","TX","75063","7501 Esters Blvd.,Suite 160, Irving, TX 75063","972-870-7460","https://www.cbp.gov/about/contact/ports/dallasft-worth-texas-5501"
"Port Arthur-Beaumont, Texas - 2101","Port of Entry","Houston","4550 Jimmy Johnson Blvd Suite 1","Port Arthur","TX","77642","4550 Jimmy Johnson Blvd Suite 1, Port Arthur, TX 77642","","https://www.cbp.gov/about/contact/ports/port-arthur-beaumont-texas-2101"
"Houston Seaport, Texas - 5301","Port of Entry","Houston","7141 Office City Drive","Houston","TX","77087","7141 Office City Drive, Houston, TX 77087","713-454-8002","https://www.cbp.gov/about/contact/ports/houston-seaport-texas-5301"
"Port Lavaca-Point Comfort, Texas - 5313","Port of Entry","Houston","9149 State Highway 44","Corpus Christi","TX","78406","9149 State Highway 44, Corpus Christi, TX 78406","","https://www.cbp.gov/about/contact/ports/port-lavaca-point-comfort-texas-5313"
"McKinney, Texas - 5585","Port of Entry","Houston","1500 E. Industrial Blvd","Mckinney","TX","75069","1500 E. Industrial Blvd, Mckinney, TX 75069","","https://www.cbp.gov/about/contact/ports/mckinney-texas-5585"
"Austin, Texas - 5506","Port of Entry","Houston","3600 Presidential Blvd. Ste. 111","Austin","TX","78719","3600 Presidential Blvd. Ste. 111, Austin, TX 78719","512-530-3053","https://www.cbp.gov/about/contact/ports/austin-texas-5506"
"Amarillo, Texas - 5502","Port of Entry","Houston","10801 Airport Blvd","Amarillo","TX","79111","10801 Airport Blvd, Amarillo, TX 79111","","https://www.cbp.gov/about/contact/ports/amarillo-texas-5502"
"Corpus Christi, Texas - 5312","Port of Entry","Houston","9149 State Highway 44","Corpus Christi","TX","78406","9149 State Highway 44, Corpus Christi, TX 78406","361-879-4400","https://www.cbp.gov/about/contact/ports/corpus-christi-texas-5312"
"Addison Airport, Texas - 5584","Port of Entry","Houston","4545 Jimmy Doolittle Dr.","Addison","TX","75001","4545 Jimmy Doolittle Dr., Addison, TX 75001","469-737-6913","https://www.cbp.gov/about/contact/ports/addison-airport-texas-5584"
"San Antonio, Texas - 5507","Port of Entry","Houston","9800 Airport Blvd","San Antonio","TX","78216","9800 Airport Blvd, San Antonio, TX 78216","","https://www.cbp.gov/about/contact/ports/san-antonio-texas-5507"
"Sugar Land, Texas - 5381","Port of Entry","Houston","12888 Highway 6 South","Sugar Land","TX","77478","12888 Highway 6 South, Sugar Land, TX 77478","281-277-1453","https://www.cbp.gov/about/contact/ports/sugar-land-texas-5381"
"Houston Airport, Texas - 5309","Port of Entry","Houston","2350 N. Sam Houston Pkwy E. #900","Houston","TX","77032","2350 N. Sam Houston Pkwy E. #900, Houston, TX 77032","281-985-6700","https://www.cbp.gov/about/contact/ports/houston-airport-texas-5309"
"Sabine, Texas - 2102","Port of Entry","Houston","4550 Jimmy Johnson Blvd","Pt Arthur","TX","77642","4550 Jimmy Johnson Blvd, Pt Arthur, TX 77642","","https://www.cbp.gov/about/contact/ports/sabine-texas-2102"
"Conroe, Texas - 5382","Port of Entry","Houston","2975 Hawthorne Drive","Conroe","TX","77303","2975 Hawthorne Drive, Conroe, TX 77303","936-441-7750","https://www.cbp.gov/about/contact/ports/conroe-texas-5382"
"Laredo","Field Office","","109 Shiloh Dr., Suite 300","Laredo","TX","78045","109 Shiloh Dr., Suite 300, Laredo, TX 78045","956-753-1768","https://www.cbp.gov/about/contact/ports/field-office/laredo"
"Laredo, Texas - 2304","Port of Entry","Laredo","Lincoln/Juarez Bridge, Administrative Bldg. #2","Laredo","TX","78040","Lincoln/Juarez Bridge, Administrative Bldg. #2, Laredo, TX 78040","956-523-7300","https://www.cbp.gov/about/contact/ports/laredo-texas-2304"
"Roma, Texas - 2310","Port of Entry","Laredo","405 N. Estrella St., Suite B","Roma","TX","78584","405 N. Estrella St., Suite B, Roma, TX 78584","","https://www.cbp.gov/about/contact/ports/roma-texas-2310"
"Del Rio, Texas - 2302","Port of Entry","Laredo","3140 Spur 239","Del Rio","TX","78840","3140 Spur 239, Del Rio, TX 78840","830-703-2012","https://www.cbp.gov/about/contact/ports/del-rio-texas-2302"
"Brownsville, Texas - 2301","Port of Entry","Laredo","3300 S. Expressway 77/83","Brownsville","TX","78521","3300 S. Expressway 77/83, Brownsville, TX 78521","956-983-5800","https://www.cbp.gov/about/contact/ports/brownsville-texas-2301"
"Eagle Pass, Texas - 2303","Port of Entry","Laredo","160 Garrison St.","Eagle Pass","TX","78852","160 Garrison St., Eagle Pass, TX 78852","830-752-3100","https://www.cbp.gov/about/contact/ports/eagle-pass-texas-2303"
"Hidalgo, Texas - 2305","Port of Entry","Laredo","9901 S. Cage Boulevard","Pharr","TX","78577","9901 S. Cage Boulevard, Pharr, TX 78577","956-283-2001","https://www.cbp.gov/about/contact/ports/hidalgo-texas-2305"
"Rio Grande City, Texas - 2307","Port of Entry","Laredo","317 S. Pete Diaz Ave.","Rio Grande City","TX","78582","317 S. Pete Diaz Ave., Rio Grande City, TX 78582","","https://www.cbp.gov/about/contact/ports/rio-grande-city-texas-2307"
"Progreso, Texas - 2309","Port of Entry","Laredo","100 South International Boulevard","Progreso","TX","78579","100 South International Boulevard, Progreso, TX 78579","956-982-6400","https://www.cbp.gov/about/contact/ports/progreso-texas-2309"
"South Texas International Airport at Edinburg - 2381","Port of Entry","Laredo","1300 E. Farm to Market Rd 490","Edinburg","TX","78542","1300 E. Farm to Market Rd 490, Edinburg, TX 78542","","https://www.cbp.gov/about/contact/ports/south-texas-international-airport-edinburg-2381"
"Harlingen Airport (Valley International Airport) – 2383","Port of Entry","Laredo","3002 Heritage Way","Harlingen","TX","78550","3002 Heritage Way, Harlingen, TX 78550","956-430-8622","https://www.cbp.gov/about/contact/ports/harlingen-airport-valley-international-airport-2383"
"Los Angeles","Field Office","","1 World Trade Center","Long Beach","CA","90831","1 World Trade Center, Long Beach, CA 90831","562-980-3100","https://www.cbp.gov/about/contact/ports/field-office/los-angeles"
"Las Vegas, Nevada - 2722","Port of Entry","Los Angeles","5757 Wayne Newton Blvd.","Las Vegas","NV","89119","5757 Wayne Newton Blvd., Las Vegas, NV 89119","","https://www.cbp.gov/about/contact/ports/las-vegas-nevada-2722"
"Palm Springs, California - 2781","Port of Entry","Los Angeles","210 N. El Cielo Road","Palm Springs","CA","92262","210 N. El Cielo Road, Palm Springs, CA 92262","","https://www.cbp.gov/about/contact/ports/palm-springs-california-2781"
"Ontario Airport, California - 2721","Port of Entry","Los Angeles","2222 E. Airport Drive","Ontario","CA","91761","2222 E. Airport Drive, Ontario, CA 91761","","https://www.cbp.gov/about/contact/ports/ontario-airport-california-2721"
"Los Angeles International Airport-Cargo Operations, California - 2720","Port of Entry","Los Angeles","11099 South La Cienega Blvd.","Los Angeles","CA","90045","11099 South La Cienega Blvd., Los Angeles, CA 90045","","https://www.cbp.gov/about/contact/ports/los-angeles-international-airport-cargo-operations-california-2720"
"Port Hueneme, California - 2713","Port of Entry","Los Angeles","720 W. Hueneme Road","Oxnard","CA","93033","720 W. Hueneme Road, Oxnard, CA 93033","","https://www.cbp.gov/about/contact/ports/port-hueneme-california-2713"
"Victorville - S. California Logistics Airport, California - 2783","Port of Entry","Los Angeles","18374 Readiness Street","Victorville","CA","92394","18374 Readiness Street, Victorville, CA 92394","","https://www.cbp.gov/about/contact/ports/victorville-s-california-logistics-airport-california-2783"
"Los Angeles/Long Beach Seaport, California - 2704","Port of Entry","Los Angeles","301 E. Ocean Blvd.","Long Beach","CA","90802","301 E. Ocean Blvd., Long Beach, CA 90802","","https://www.cbp.gov/about/contact/ports/los-angeleslong-beach-seaport-california-2704"
"San Bernardino International Airport, California - 2782","Port of Entry","Los Angeles","265 N. Leland Norton Way","San Bernardino","CA","92408","265 N. Leland Norton Way, San Bernardino, CA 92408","909-382-7291","https://www.cbp.gov/about/contact/ports/san-bernardino-international-airport-california-2782"
"Miami","Field Office","","909 S.E. 1st Avenue","Miami","FL","33131","909 S.E. 1st Avenue, Miami, FL 33131","305-810-5120","https://www.cbp.gov/about/contact/ports/field-office/miami"
"Miami International Airport, Florida - 5206","Port of Entry","Miami","4200 NW 21st Street","Miami","FL","33122","4200 NW 21st Street, Miami, FL 33122","786-476-3100","https://www.cbp.gov/about/contact/ports/miami-international-airport-florida-5206"
"Key West, Florida - 5202","Port of Entry","Miami","301 Simonton Street","Key West","FL","33040","301 Simonton Street, Key West, FL 33040","305-296-5411","https://www.cbp.gov/about/contact/ports/key-west-florida-5202"
"Miami Seaport, Florida - 5201","Port of Entry","Miami","1435 North Cruise Blvd","Miami","FL","33132","1435 North Cruise Blvd, Miami, FL 33132","305-536-4758","https://www.cbp.gov/about/contact/ports/miami-seaport-florida-5201"
"Port Everglades/Fort Lauderdale, Florida - 5203","Port of Entry","Miami","1800 Eller Drive","Fort Lauderdale","FL","33316","1800 Eller Drive, Fort Lauderdale, FL 33316","954-761-2000","https://www.cbp.gov/about/contact/ports/port-evergladesfort-lauderdale-florida-5203"
"West Palm Beach, Florida - 5204","Port of Entry","Miami","1 East 11th Street","Riviera Beach","FL","33404","1 East 11th Street, Riviera Beach, FL 33404","561-844-1703","https://www.cbp.gov/about/contact/ports/west-palm-beach-florida-5204"
"New Orleans","Field Office","","423 Canal Street","New Orleans","LA","70130","423 Canal Street, New Orleans, LA 70130","504-670-2404","https://www.cbp.gov/about/contact/ports/field-office/new-orleans"
"Huntsville, Alabama - 1910","Port of Entry","New Orleans","2850 Wall-Triana Highway","Huntsville","AL","35824","2850 Wall-Triana Highway, Huntsville, AL 35824","","https://www.cbp.gov/about/contact/ports/huntsville-alabama-1910"
"Birmingham, Alabama - 1904","Port of Entry","New Orleans","Concourse A/FIS","Birmingham","AL","35212","Concourse A/FIS, Birmingham, AL 35212","","https://www.cbp.gov/about/contact/ports/birmingham-alabama-1904"
"Mobile (Including Theodore), Alabama - 1901","Port of Entry","New Orleans","150 N. Royal Street","Mobile","AL","36602","150 N. Royal Street, Mobile, AL 36602","251-378-7600","https://www.cbp.gov/about/contact/ports/mobile-including-theodore-alabama-1901"
"Knoxville, Tennessee - 2016","Port of Entry","New Orleans","Duncan Federal Building, Room 435","Knoxville","TN","37902","Duncan Federal Building, Room 435, Knoxville, TN 37902","","https://www.cbp.gov/about/contact/ports/knoxville-tennessee-2016"
"Nashville, Tennessee - 2007","Port of Entry","New Orleans","#1 Terminal Lane","Nashville","TN","37214","#1 Terminal Lane, Nashville, TN 37214","615-275-4070","https://www.cbp.gov/about/contact/ports/nashville-tennessee-2007"
"Tri-Cities, Tennessee - 2027","Port of Entry","New Orleans","Port of Tri-Cities, TN/VA","Blountville","TN","37617","Port of Tri-Cities, TN/VA, Blountville, TN 37617","","https://www.cbp.gov/about/contact/ports/tri-cities-tennessee-2027"
"Memphis, Tennessee - 2006","Port of Entry","New Orleans","2813 Business Park Drive","Memphis","TN","38118","2813 Business Park Drive, Memphis, TN 38118","901-480-4000","https://www.cbp.gov/about/contact/ports/memphis-tennessee-2006"
"Chattanooga, Tennessee - 2008","Port of Entry","New Orleans","5959 Shallowford Road","Chattanooga","TN","37421","5959 Shallowford Road, Chattanooga, TN 37421","423-327-4597","https://www.cbp.gov/about/contact/ports/chattanooga-tennessee-2008"
"Baton Rouge, Louisiana - 2004","Port of Entry","New Orleans","5353 Essen Lane","Baton Rouge","LA","70809","5353 Essen Lane, Baton Rouge, LA 70809","504-670-2450","https://www.cbp.gov/about/contact/ports/baton-rouge-louisiana-2004"
"Shreveport-Bossier City, Louisiana - 2018","Port of Entry","New Orleans","5645 West Perimeter Road","Shreveport","LA","71109","5645 West Perimeter Road, Shreveport, LA 71109","318-635-7873","https://www.cbp.gov/about/contact/ports/shreveport-bossier-city-louisiana-2018"
"Morgan City, Louisiana - 2001","Port of Entry","New Orleans","1116 Bayou Lacarpe Road","Houma","LA","70363","1116 Bayou Lacarpe Road, Houma, LA 70363","504-670-2415","https://www.cbp.gov/about/contact/ports/morgan-city-louisiana-2001"
"Lake Charles, Louisiana - 2017","Port of Entry","New Orleans","152 Marine Street","Lake Charles","LA","70601","152 Marine Street, Lake Charles, LA 70601","337-721-3400","https://www.cbp.gov/about/contact/ports/lake-charles-louisiana-2017"
"New Orleans, Louisiana - 2002","Port of Entry","New Orleans","423 Canal Street","New Orleans","LA","70130","423 Canal Street, New Orleans, LA 70130","504-670-2391","https://www.cbp.gov/about/contact/ports/new-orleans-louisiana-2002"
"Gramercy, Louisiana - 2010","Port of Entry","New Orleans","110 North Airline Avenue","Gramercy","LA","70052","110 North Airline Avenue, Gramercy, LA 70052","504-670-2264","https://www.cbp.gov/about/contact/ports/gramercy-louisiana-2010"
"Little Rock-North Little Rock, Arkansas - 2003","Port of Entry","New Orleans","1000 Temple Street","Little Rock","AR","72202","1000 Temple Street, Little Rock, AR 72202","501-324-4898","https://www.cbp.gov/about/contact/ports/little-rock-north-little-rock-arkansas-2003"
"Rogers Airport, Arkansas - 2084","Port of Entry","New Orleans","#5 Hammerschmidt Drive","Rogers","AR","72756","#5 Hammerschmidt Drive, Rogers, AR 72756","","https://www.cbp.gov/about/contact/ports/rogers-airport-arkansas-2084"
"Port of Jackson - 2015","Port of Entry","New Orleans","710 Airport Service Rd, Bay 15","Flowood","MS","39232","710 Airport Service Rd, Bay 15, Flowood, MS 39232","601-932-3324","https://www.cbp.gov/about/contact/ports/vicksburg-mississippi-2015"
"Gulfport, Mississippi - 1902","Port of Entry","New Orleans","14108 Customs Boulevard","Gulfport","MS","39503","14108 Customs Boulevard, Gulfport, MS 39503","228-863-6350","https://www.cbp.gov/about/contact/ports/gulfport-mississippi-1902"
"Pascagoula, Mississippi - 1903","Port of Entry","New Orleans","U S S Wisconsin Loop","Pascagoula","MS","39595","U S S Wisconsin Loop, Pascagoula, MS 39595","228-761-0041","https://www.cbp.gov/about/contact/ports/pascagoula-mississippi-1903"
"New York","Field Office","","One World Trade Center","New York","NY","10007","One World Trade Center, New York, NY 10007","646-733-3100","https://www.cbp.gov/about/contact/ports/field-office/new-york"
"Perth Amboy, New Jersey - 4602","Port of Entry","New York","205 Jefferson Street","Perth Amboy","NJ","08861","205 Jefferson Street, Perth Amboy, NJ 08861","","https://www.cbp.gov/about/contact/ports/perth-amboy-new-jersey-4602"
"New York/Newark, New Jersey - 4601","Port of Entry","New York","1210 Corbin Street","Elizabeth","NJ","07201","1210 Corbin Street, Elizabeth, NJ 07201","201-443-0250","https://www.cbp.gov/about/contact/ports/new-yorknewark-new-jersey-4601"
"Morristown Airport, New Jersey - 4681","Port of Entry","New York","15 Airport Road","Morristown","NJ","07960","15 Airport Road, Morristown, NJ 07960","","https://www.cbp.gov/about/contact/ports/morristown-airport-new-jersey-4681"
"John F. Kennedy International Airport, New York - 4701","Port of Entry","New York","John F. Kennedy International Airport","Jamaica","NY","11430","John F. Kennedy International Airport, Jamaica, NY 11430","718-487-5164","https://www.cbp.gov/about/contact/ports/john-f-kennedy-international-airport-new-york-4701"
"Portland","Field Office","","33 New Montgomery","San Francisco","CA","94105","33 New Montgomery, San Francisco, CA 94105","415-744-1530","https://www.cbp.gov/about/contact/ports/field-office/portland"
"Anchorage, Alaska - 3126","Port of Entry","Portland","605 W. 4th Ave.","Anchorage","AK","99501","605 W. 4th Ave., Anchorage, AK 99501","907-271-2675","https://www.cbp.gov/about/contact/ports/anchorage-alaska-3126"
"Valdez, Alaska - 3107","Port of Entry","Portland","c/o 605 West 4th Avenue, Suite 230","Anchorage","AK","99501","c/o 605 West 4th Avenue, Suite 230, Anchorage, AK 99501","907-271-6313","https://www.cbp.gov/about/contact/ports/valdez-alaska-3107"
"Kodiak, Alaska - 3127","Port of Entry","Portland","c/o 605 W. 4th Ave.","Anchorage","AK","99501","c/o 605 W. 4th Ave., Anchorage, AK 99501","907-271-6313","https://www.cbp.gov/about/contact/ports/kodiak-alaska-3127"
"Ketchikan, Alaska - 3102","Port of Entry","Portland","648 Mission St.","Ketchikan","AK","99901","648 Mission St., Ketchikan, AK 99901","907-225-2254","https://www.cbp.gov/about/contact/ports/ketchikan-alaska-3102"
"Alcan, Alaska - 3104","Port of Entry","Portland","Milepost 1221.8 Alaska Hwy","Alcan","AK","99780","Milepost 1221.8 Alaska Hwy, Alcan, AK 99780","907-774-2252","https://www.cbp.gov/about/contact/ports/alcan-alaska-3104"
"Dalton Cache, Alaska - 3106","Port of Entry","Portland","Milepost 40, Haines Hwy.","Dalton Cache","AK","99827","Milepost 40, Haines Hwy., Dalton Cache, AK 99827","907-767-5511","https://www.cbp.gov/about/contact/ports/dalton-cache-alaska-3106"
"Skagway, Alaska - 3103","Port of Entry","Portland","Milepost 6.8, Klondike Hwy.","Skagway","AK","99840","Milepost 6.8, Klondike Hwy., Skagway, AK 99840","","https://www.cbp.gov/about/contact/ports/skagway-alaska-3103"
"Nome, Alaska - 3128","Port of Entry","Portland","113 W. Front Street","Nome","AK","99762","113 W. Front Street, Nome, AK 99762","907-443-2143","https://www.cbp.gov/about/contact/ports/nome-alaska-3128"
"Sitka, Alaska - 3115","Port of Entry","Portland","329 Harbor Dr.","Sitka","AK","99835","329 Harbor Dr., Sitka, AK 99835","907-747-3374","https://www.cbp.gov/about/contact/ports/sitka-alaska-3115"
"Wrangell, Alaska - 3105","Port of Entry","Portland","431 Zimovia Highway","Wrangell","AK","99929","431 Zimovia Highway, Wrangell, AK 99929","907-874-3415","https://www.cbp.gov/about/contact/ports/wrangell-alaska-3105"
"Juneau, Alaska - 3101","Port of Entry","Portland","510 S. Franklin St","Juneau","AK","99801","510 S. Franklin St, Juneau, AK 99801","907-586-7211","https://www.cbp.gov/about/contact/ports/juneau-alaska-3101"
"Boise, Idaho - 2907","Port of Entry","Portland","4655 S. Enterprise Street","Boise","ID","83705","4655 S. Enterprise Street, Boise, ID 83705","208-972-8730","https://www.cbp.gov/about/contact/ports/boise-idaho-2907"
"Newport, Oregon - 2902","Port of Entry","Portland","610 SE Bay Boulevard","Newport","OR","97365","610 SE Bay Boulevard, Newport, OR 97365","541-756-2396","https://www.cbp.gov/about/contact/ports/newport-oregon-2902"
"Astoria, Oregon - 2901","Port of Entry","Portland","#10 Pier 1, Suite 100","Astoria","OR","97103","#10 Pier 1, Suite 100, Astoria, OR 97103","","https://www.cbp.gov/about/contact/ports/astoria-oregon-2901"
"Coos Bay, Oregon - 2903","Port of Entry","Portland","3229 Broadway Street, Suite E","North Bend","OR","97459","3229 Broadway Street, Suite E, North Bend, OR 97459","541-756-2396","https://www.cbp.gov/about/contact/ports/coos-bay-oregon-2903"
"Hillsboro, Oregon - 2983","Port of Entry","Portland","3355 NE Cornell Road, #5","Hillsboro","OR","97124","3355 NE Cornell Road, #5, Hillsboro, OR 97124","","https://www.cbp.gov/about/contact/ports/hillsboro-oregon-2983"
"Rocky Mountain Metropolitan Airport, Colorado - 3383","Port of Entry","Portland","11755 Airport Way","Broomfield","CO","80021","11755 Airport Way, Broomfield, CO 80021","303-271-4884","https://www.cbp.gov/about/contact/ports/rocky-mountain-metropolitan-airport-colorado-3383"
"Denver, Colorado - 3307","Port of Entry","Portland","18300 E. 71st Ave.","Denver","CO","80249","18300 E. 71st Ave., Denver, CO 80249","303-375-4500","https://www.cbp.gov/about/contact/ports/denver-colorado-3307"
"Centennial Airport, Colorado - 3384","Port of Entry","Portland","7601 S. Peoria St., D-16","Englewood","CO","80012","7601 S. Peoria St., D-16, Englewood, CO 80012","303-768-0309","https://www.cbp.gov/about/contact/ports/centennial-airport-colorado-3384"
"Eagle County Regional Airport, Colorado - 3385","Port of Entry","Portland","0871 Cooley Mesa Road","Gypsum","CO","81637","0871 Cooley Mesa Road, Gypsum, CO 81637","970-524-0490","https://www.cbp.gov/about/contact/ports/eagle-county-regional-airport-colorado-3385"
"Longview, Washington - 2905","Port of Entry","Portland","1450 Terminal Way","Longview","WA","98632","1450 Terminal Way, Longview, WA 98632","","https://www.cbp.gov/about/contact/ports/longview-washington-2905"
"Natrona County Airport, Wyoming - 3332","Port of Entry","Portland","8500 Airport Pkwy, Suite 217.","Casper","WY","82604","8500 Airport Pkwy, Suite 217., Casper, WY 82604","","https://www.cbp.gov/about/contact/ports/natrona-county-airport-wyoming-3332"
"San Diego","Field Office","","720 East San Ysidro Blvd","San Diego","CA","92173","720 East San Ysidro Blvd, San Diego, CA 92173","","https://www.cbp.gov/about/contact/ports/field-office/san-diego"
"San Ysidro - Class A, California - 2504","Port of Entry","San Diego","720 East San Ysidro Blvd","San Ysidro","CA","92173","720 East San Ysidro Blvd, San Ysidro, CA 92173","619-428-2188","https://www.cbp.gov/about/contact/ports/san-ysidro-class-california-2504"
"Tecate - Class A, California - 2505","Port of Entry","San Diego","405 Tecate Rd","Tecate","CA","91980","405 Tecate Rd, Tecate, CA 91980","619-938-8330","https://www.cbp.gov/about/contact/ports/tecate-class-california-2505"
"Otay Mesa, California - 2506","Port of Entry","San Diego","9777 Via De La Amistad","San Diego","CA","92154","9777 Via De La Amistad, San Diego, CA 92154","","https://www.cbp.gov/about/contact/ports/otay-mesa-california-2506"
"Calexico West - Class A, California - 2503","Port of Entry","San Diego","200 East First Street","Calexico","CA","92231","200 East First Street, Calexico, CA 92231","760-768-2300","https://www.cbp.gov/about/contact/ports/calexico-west-class-california-2503"
"Andrade - Class A, California - 2502","Port of Entry","San Diego","235 Andrade Road","Winterhaven","CA","92283","235 Andrade Road, Winterhaven, CA 92283","","https://www.cbp.gov/about/contact/ports/andrade-class-california-2502"
"San Diego, California - 2501","Port of Entry","San Diego","3835 N. Harbor Drive","San Diego","CA","92101","3835 N. Harbor Drive, San Diego, CA 92101","619-491-2600","https://www.cbp.gov/about/contact/ports/san-diego-california-2501"
"Calexico East - Class A, California - 2507","Port of Entry","San Diego","1699 East Carr, Rd","Calexico","CA","92231","1699 East Carr, Rd, Calexico, CA 92231","760-768-2300","https://www.cbp.gov/about/contact/ports/calexico-east-class-california-2507"
"San Francisco","Field Office","","33 New Montgomery St., 16th floor","San Francisco","CA","94105","33 New Montgomery St., 16th floor, San Francisco, CA 94105","415-744-1530","https://www.cbp.gov/about/contact/ports/field-office/san-francisco"
"Tinian, Northern Mariana Islands - 3212","Port of Entry","San Francisco","Tinian International Airport","Tinian","MP","96950","Tinian International Airport, Tinian, MP 96950","","https://www.cbp.gov/about/contact/ports/tinian-northern-mariana-islands-3212"
"Saipan, Northern Mariana Islands - 3211","Port of Entry","San Francisco","Chalan I Fadang Saipan International Airport","Dandan","MP","96950","Chalan I Fadang Saipan International Airport, Dandan, MP 96950","670-288-0027","https://www.cbp.gov/about/contact/ports/saipan-northern-mariana-islands-3211"
"Rota, Northern Mariana Islands - 3213","Port of Entry","San Francisco","Rota International Airport","Rota","MP","96951","Rota International Airport, Rota, MP 96951","670-288-0028","https://www.cbp.gov/about/contact/ports/rota-northern-mariana-islands-3213"
"Hagatna, Guam, Guam - 3207","Port of Entry","San Francisco","A.B. Won Pat Guam International Airport","Tamuning","GU","96913","A.B. Won Pat Guam International Airport, Tamuning, GU 96913","","https://www.cbp.gov/about/contact/ports/hagatna-guam-guam-3207"
"Salt Lake City, Utah - 3303","Port of Entry","San Francisco","3920 West Terminal Drive","Salt Lake City","UT","84112","3920 West Terminal Drive, Salt Lake City, UT 84112","801-524-3445","https://www.cbp.gov/about/contact/ports/salt-lake-city-utah-3303"
"Nawiliwili-Port Allen, Hawaii - 3204","Port of Entry","San Francisco","Lihue Airport","Lihue","HI","96766","Lihue Airport, Lihue, HI 96766","","https://www.cbp.gov/about/contact/ports/nawiliwili-port-allen-hawaii-3204"
"Kona, Hawaii - 3206","Port of Entry","San Francisco","Ellison Onizuka Kona International Airport at Keahole Federal Inspection Station","Kailua-Kona","HI","96740","Ellison Onizuka Kona International Airport at Keahole Federal Inspection Station, Kailua-Kona, HI 96740","","https://www.cbp.gov/about/contact/ports/kona-hawaii-3206"
"Honolulu, Hawaii - 3201","Port of Entry","San Francisco","300 Ala Moana Blvd. Room 2500","Honolulu","HI","96850","300 Ala Moana Blvd. Room 2500, Honolulu, HI 96850","808-356-4100","https://www.cbp.gov/about/contact/ports/honolulu-hawaii-3201"
"Daniel K. Inouye International Airport - 3205","Port of Entry","San Francisco","300 Rodgers Blvd.","Honolulu","HI","96819","300 Rodgers Blvd., Honolulu, HI 96819","808-237-4600","https://www.cbp.gov/about/contact/ports/daniel-k-inouye-international-airport-3205"
"Hilo, Hawaii - 3202","Port of Entry","San Francisco","29 Kuhio Street","Hilo","HI","96720","29 Kuhio Street, Hilo, HI 96720","","https://www.cbp.gov/about/contact/ports/hilo-hawaii-3202"
"Kahului, Hawaii - 3203","Port of Entry","San Francisco","Kahului Airport","Kahului","HI","96732","Kahului Airport, Kahului, HI 96732","","https://www.cbp.gov/about/contact/ports/kahului-hawaii-3203"
"Reno, Nevada - 2833","Port of Entry","San Francisco","2220 Radar Street","Reno","NV","89502","2220 Radar Street, Reno, NV 89502","","https://www.cbp.gov/about/contact/ports/reno-nevada-2833"
"Sacramento, California - 2835","Port of Entry","San Francisco","6900 Airport Boulevard","Sacramento","CA","95837","6900 Airport Boulevard, Sacramento, CA 95837","","https://www.cbp.gov/about/contact/ports/sacramento-california-2835"
"San Francisco, California - 2809","Port of Entry","San Francisco","555 Battery Street, Room 319","San Francisco","CA","94111","555 Battery Street, Room 319, San Francisco, CA 94111","415-782-9200","https://www.cbp.gov/about/contact/ports/san-francisco-california-2809"
"Fresno (2803/2882), California - 2803","Port of Entry","San Francisco","5177 E. Clinton Way","Fresno","CA","93727","5177 E. Clinton Way, Fresno, CA 93727","","https://www.cbp.gov/about/contact/ports/fresno-28032882-california-2803"
"San Jose International Airport, California - 2834","Port of Entry","San Francisco","2065 Airport Blvd.","San Jose","CA","95110","2065 Airport Blvd., San Jose, CA 95110","408-291-7388","https://www.cbp.gov/about/contact/ports/san-jose-international-airport-california-2834"
"San Francisco International Airport, California - 2801","Port of Entry","San Francisco","555 Battery Street","San Francisco","CA","94111","555 Battery Street, San Francisco, CA 94111","","https://www.cbp.gov/about/contact/ports/san-francisco-international-airport-california-2801"
"Eureka, California - 2802","Port of Entry","San Francisco","317 3rd Street, Suite 6","Eureka","CA","95501","317 3rd Street, Suite 6, Eureka, CA 95501","","https://www.cbp.gov/about/contact/ports/eureka-california-2802"
"San Juan","Field Office","","#1 La Puntilla St.","San Juan","PR","00901","#1 La Puntilla St., San Juan, PR 00901","","https://www.cbp.gov/about/contact/ports/field-office/san-juan"
"Ponce, Puerto Rico - 4908","Port of Entry","San Juan","63 Calle Bonaire","Ponce","PR","00716","63 Calle Bonaire, Ponce, PR 00716","787-841-3130","https://www.cbp.gov/about/contact/ports/ponce-puerto-rico-4908"
"Aguadilla, Puerto Rico - 4901","Port of Entry","San Juan","Rafael Hernandez Airport","Aguadilla","PR","00604","Rafael Hernandez Airport, Aguadilla, PR 00604","","https://www.cbp.gov/about/contact/ports/aguadilla-puerto-rico-4901"
"Mayaguez, Puerto Rico - 4907","Port of Entry","San Juan","31 Gonzalez Clemente Ave.","Mayaguez","PR","00680","31 Gonzalez Clemente Ave., Mayaguez, PR 00680","","https://www.cbp.gov/about/contact/ports/mayaguez-puerto-rico-4907"
"Fajardo, Puerto Rico - 4904","Port of Entry","San Juan","U.S. Customhouse","Puerto Real","PR","00740","U.S. Customhouse, Puerto Real, PR 00740","","https://www.cbp.gov/about/contact/ports/fajardo-puerto-rico-4904"
"Luis Munoz Marin International Airport, Puerto Rico - 4913","Port of Entry","San Juan","#1 La Puntilla St","San Juan","PR","00901","#1 La Puntilla St, San Juan, PR 00901","","https://www.cbp.gov/about/contact/ports/luis-munoz-marin-international-airport-puerto-rico-4913"
"San Juan, PR (Area Port), Puerto Rico - 4909","Port of Entry","San Juan","#1 La Puntilla St","San Juan","PR","00901","#1 La Puntilla St, San Juan, PR 00901","787-729-6850","https://www.cbp.gov/about/contact/ports/san-juan-pr-area-port-puerto-rico-4909"
"Cruz Bay (St. John), Virgin Islands - 5102","Port of Entry","San Juan","Victor W. Sewer Marine Facility","St. John","VI","00830","Victor W. Sewer Marine Facility, St. John, VI 00830","","https://www.cbp.gov/about/contact/ports/cruz-bay-st-john-virgin-islands-5102"
"Saint Croix, Virgin Islands - 5104","Port of Entry","San Juan","RR #2-9922","Kingshill","VI","00850","RR #2-9922, Kingshill, VI 00850","340-773-1490","https://www.cbp.gov/about/contact/ports/saint-croix-virgin-islands-5104"
"Charlotte Amalie (Area Port of St. Thomas), Virgin Islands - 5101","Port of Entry","San Juan","Ron de Lugo Federal Building","St. Thomas","VI","00802","Ron de Lugo Federal Building, St. Thomas, VI 00802","","https://www.cbp.gov/about/contact/ports/charlotte-amalie-area-port-st-thomas-virgin-islands-5101"
"Seattle","Field Office","","1000 2nd Avenue","Seattle","WA","98104","1000 2nd Avenue, Seattle, WA 98104","360-332-4413","https://www.cbp.gov/about/contact/ports/field-office/seattle"
"Eastport, ID, Idaho - 3302","Port of Entry","Seattle","Hwy 95 N. at Canadian border","Eastport","ID","83826","Hwy 95 N. at Canadian border, Eastport, ID 83826","208-267-3966","https://www.cbp.gov/about/contact/ports/eastport-id-idaho-3302"
"Porthill, ID, Idaho - 3308","Port of Entry","Seattle","Highway 1 at Canadian Border","Porthill","ID","83853","Highway 1 at Canadian Border, Porthill, ID 83853","208-267-5309","https://www.cbp.gov/about/contact/ports/porthill-id-idaho-3308"
"Lancaster, Minnesota - 3430","Port of Entry","Seattle","4151 Hwy 59","Lancaster","MN","56735","4151 Hwy 59, Lancaster, MN 56735","","https://www.cbp.gov/about/contact/ports/lancaster-minnesota-3430"
"Pinecreek, Minnesota - 3425","Port of Entry","Seattle","41937 State Hwy 89","Roseau","MN","56751","41937 State Hwy 89, Roseau, MN 56751","","https://www.cbp.gov/about/contact/ports/pinecreek-minnesota-3425"
"Warroad, Minnesota - 3423","Port of Entry","Seattle","41059 State Hwy 313","Warroad","MN","56763","41059 State Hwy 313, Warroad, MN 56763","","https://www.cbp.gov/about/contact/ports/warroad-minnesota-3423"
"International Falls, Minnesota - 3604","Port of Entry","Seattle","2 Second Ave","International Falls","MN","56649","2 Second Ave, International Falls, MN 56649","","https://www.cbp.gov/about/contact/ports/international-falls-minnesota-3604"
"Roseau, Minnesota - 3426","Port of Entry","Seattle","41967 State Hwy 310","Roseau","MN","56751","41967 State Hwy 310, Roseau, MN 56751","","https://www.cbp.gov/about/contact/ports/roseau-minnesota-3426"
"Baudette, Minnesota - 3424","Port of Entry","Seattle","600 International Drive","Baudette","MN","56623","600 International Drive, Baudette, MN 56623","218-634-2803","https://www.cbp.gov/about/contact/ports/baudette-minnesota-3424"
"Grand Portage, Minnesota - 3613","Port of Entry","Seattle","9403 E Highway 61","Grand Portage","MN","55605","9403 E Highway 61, Grand Portage, MN 55605","","https://www.cbp.gov/about/contact/ports/grand-portage-minnesota-3613"
"Morgan, MT, Montana - 3319","Port of Entry","Seattle","53869 US Highway 191 N","Loring","MT","59537","53869 US Highway 191 N, Loring, MT 59537","406-674-5248","https://www.cbp.gov/about/contact/ports/morgan-mt-montana-3319"
"Turner, MT, Montana - 3306","Port of Entry","Seattle","41725 Turner Road","Turner","MT","59542","41725 Turner Road, Turner, MT 59542","406-379-2651","https://www.cbp.gov/about/contact/ports/turner-mt-montana-3306"
"Willow Creek, Montana - 3325","Port of Entry","Seattle","29942 St Joe Road","Havre","MT","59501","29942 St Joe Road, Havre, MT 59501","406-398-5512","https://www.cbp.gov/about/contact/ports/willow-creek-montana-3325"
"Bozeman Yellowstone User Fee Airport, Montana - 3386","Port of Entry","Seattle","550 Wings Way","Belgrade","MT","59714","550 Wings Way, Belgrade, MT 59714","406-388-2144","https://www.cbp.gov/about/contact/ports/bozeman-yellowstone-user-fee-airport-montana-3386"
"Port of Sweetgrass, Montana - 3310","Port of Entry","Seattle","39825 Interstate 15","Sweetgrass","MT","59484","39825 Interstate 15, Sweetgrass, MT 59484","406-335-9610","https://www.cbp.gov/about/contact/ports/area-port-sweetgrass-montana-3310"
"Raymond, Montana - 3301","Port of Entry","Seattle","Hwy 16 north of Raymond","Raymond","MT","59256","Hwy 16 north of Raymond, Raymond, MT 59256","406-895-2664","https://www.cbp.gov/about/contact/ports/raymond-montana-3301"
"Roosville, Montana - 3318","Port of Entry","Seattle","7915 Hwy 93 North","Eureka","MT","59917","7915 Hwy 93 North, Eureka, MT 59917","406-889-3865","https://www.cbp.gov/about/contact/ports/roosville-montana-3318"
"Whitlash, Montana - 3321","Port of Entry","Seattle","10 Whitlash Road","Whitlash","MT","59545","10 Whitlash Road, Whitlash, MT 59545","","https://www.cbp.gov/about/contact/ports/whitlash-montana-3321"
"Great Falls International Airport, Montana - 3304","Port of Entry","Seattle","1600 Airport Drive","Great Falls","MT","59404","1600 Airport Drive, Great Falls, MT 59404","406-453-0861","https://www.cbp.gov/about/contact/ports/great-falls-airport-mt-montana-3304"
"Del Bonita, MT, Montana - 3322","Port of Entry","Seattle","4071 Chalk Butte Road","Cut Bank","MT","59427","4071 Chalk Butte Road, Cut Bank, MT 59427","406-336-2130","https://www.cbp.gov/about/contact/ports/del-bonita-mt-montana-3322"
"Piegan, MT, Montana - 3316","Port of Entry","Seattle","5023 Highway 89 North","Babb","MT","59411","5023 Highway 89 North, Babb, MT 59411","406-732-5572","https://www.cbp.gov/about/contact/ports/piegan-mt-montana-3316"
"Scobey, MT, Montana - 3309","Port of Entry","Seattle","1440 Hwy 13 North","Scobey","MT","59263","1440 Hwy 13 North, Scobey, MT 59263","406-783-5375","https://www.cbp.gov/about/contact/ports/scobey-mt-montana-3309"
"Opheim, MT, Montana - 3317","Port of Entry","Seattle","6071 State Highway 24 North","Opheim","MT","59250","6071 State Highway 24 North, Opheim, MT 59250","","https://www.cbp.gov/about/contact/ports/opheim-mt-montana-3317"
"Glacier Park International Airport, Montana (Kalispell) - 3324","Port of Entry","Seattle","Glacier Park International Airport","Kalispell","MT","59901","Glacier Park International Airport, Kalispell, MT 59901","406-257-7034","https://www.cbp.gov/about/contact/ports/kalispell-airport-mt-montana-3324"
"Butte Airport, MT, Montana - 3305","Port of Entry","Seattle","101 Airport Road","Butte","MT","59702","101 Airport Road, Butte, MT 59702","406-449-5506","https://www.cbp.gov/about/contact/ports/butte-airport-mt-montana-3305"
"Wild Horse, MT, Montana - 3323","Port of Entry","Seattle","29832 Wild Horse Road","Havre","MT","59501","29832 Wild Horse Road, Havre, MT 59501","406-394-2371","https://www.cbp.gov/about/contact/ports/wild-horse-mt-montana-3323"
"Minot - Minot International Airport, North Dakota - 3434","Port of Entry","Seattle","2400 North Broadway","Minot","ND","58703","2400 North Broadway, Minot, ND 58703","","https://www.cbp.gov/about/contact/ports/minot-minot-international-airport-north-dakota-3434"
"Sherwood, North Dakota - 3414","Port of Entry","Seattle","10927 HWY 28","Sherwood","ND","58782","10927 HWY 28, Sherwood, ND 58782","701-459-2250","https://www.cbp.gov/about/contact/ports/sherwood-north-dakota-3414"
"Sarles, North Dakota - 3409","Port of Entry","Seattle","10949 State Hwy 20","Sarles","ND","58372","10949 State Hwy 20, Sarles, ND 58372","","https://www.cbp.gov/about/contact/ports/sarles-north-dakota-3409"
"Hansboro, North Dakota - 3415","Port of Entry","Seattle","10935 Hwy 4","Hansboro","ND","58339","10935 Hwy 4, Hansboro, ND 58339","","https://www.cbp.gov/about/contact/ports/hansboro-north-dakota-3415"
"Dunseith, North Dakota - 3422","Port of Entry","Seattle","10947 Highway 281","Dunseith","ND","58329","10947 Highway 281, Dunseith, ND 58329","","https://www.cbp.gov/about/contact/ports/dunseith-north-dakota-3422"
"Westhope, North Dakota - 3419","Port of Entry","Seattle","10923 Hwy #83","Westhope","ND","58793","10923 Hwy #83, Westhope, ND 58793","","https://www.cbp.gov/about/contact/ports/westhope-north-dakota-3419"
"Walhalla, North Dakota - 3407","Port of Entry","Seattle","10955 State Hwy 32","Walhalla","ND","58282","10955 State Hwy 32, Walhalla, ND 58282","","https://www.cbp.gov/about/contact/ports/walhalla-north-dakota-3407"
"Saint John, North Dakota - 3405","Port of Entry","Seattle","10935 Highway 30","St. John","ND","58369","10935 Highway 30, St. John, ND 58369","","https://www.cbp.gov/about/contact/ports/saint-john-north-dakota-3405"
"Portal, North Dakota - 3403","Port of Entry","Seattle","301 W Railway Ave","Portal","ND","58772","301 W Railway Ave, Portal, ND 58772","","https://www.cbp.gov/about/contact/ports/portal-north-dakota-3403"
"Neche, North Dakota - 3404","Port of Entry","Seattle","10949 Hwy #18","Neche","ND","58265","10949 Hwy #18, Neche, ND 58265","701-886-7744","https://www.cbp.gov/about/contact/ports/neche-north-dakota-3404"
"Grand Forks - Mark Andrews International Airport, North Dakota - 3427","Port of Entry","Seattle","2355 Airport Drive","Grand Forks","ND","58203","2355 Airport Drive, Grand Forks, ND 58203","701-772-3301","https://www.cbp.gov/about/contact/ports/grand-forks-mark-andrews-international-airport-north-dakota-3427"
"Carbury, North Dakota - 3421","Port of Entry","Seattle","10919 Hwy 14 NE","Souris","ND","58783","10919 Hwy 14 NE, Souris, ND 58783","","https://www.cbp.gov/about/contact/ports/carbury-north-dakota-3421"
"Fargo - Hector International Airport, North Dakota - 3411","Port of Entry","Seattle","3803 20th. Street N.","Fargo","ND","58102","3803 20th. Street N., Fargo, ND 58102","701-241-8124","https://www.cbp.gov/about/contact/ports/fargo-hector-international-airport-north-dakota-3411"
"Ambrose, North Dakota - 3410","Port of Entry","Seattle","10935 State Hwy 42","Ambrose","ND","58833","10935 State Hwy 42, Ambrose, ND 58833","","https://www.cbp.gov/about/contact/ports/ambrose-north-dakota-3410"
"Maida, North Dakota - 3416","Port of Entry","Seattle","10947 Hwy 1 N","Langdon","ND","58255","10947 Hwy 1 N, Langdon, ND 58255","","https://www.cbp.gov/about/contact/ports/maida-north-dakota-3416"
"Hannah, North Dakota - 3408","Port of Entry","Seattle","10951 91st. Ave. NE","Hannah","ND","58239","10951 91st. Ave. NE, Hannah, ND 58239","","https://www.cbp.gov/about/contact/ports/hannah-north-dakota-3408"
"Noonan, North Dakota - 3420","Port of Entry","Seattle","10945 N 40","Noonan","ND","58765","10945 N 40, Noonan, ND 58765","","https://www.cbp.gov/about/contact/ports/noonan-north-dakota-3420"
"Antler, North Dakota - 3413","Port of Entry","Seattle","10945 Hwy 256","Antler","ND","58711","10945 Hwy 256, Antler, ND 58711","","https://www.cbp.gov/about/contact/ports/antler-north-dakota-3413"
"Williston Basin International Airport, Williston, ND - 3433","Port of Entry","Seattle","14151 Commerce Drive","Williston","ND","58801","14151 Commerce Drive, Williston, ND 58801","","https://www.cbp.gov/about/contact/ports/williston-basin-international-airport-williston-nd-3433"
"Fortuna, North Dakota - 3417","Port of Entry","Seattle","10935 HWY 85 NW","Fortuna","ND","58844","10935 HWY 85 NW, Fortuna, ND 58844","701-834-2493","https://www.cbp.gov/about/contact/ports/fortuna-north-dakota-3417"
"Pembina - (Area Port), North Dakota - 3401","Port of Entry","Seattle","10980 Hwy 29","Pembina","ND","58271","10980 Hwy 29, Pembina, ND 58271","701-825-5800","https://www.cbp.gov/about/contact/ports/pembina-area-port-north-dakota-3401"
"Northgate, North Dakota - 3406","Port of Entry","Seattle","10921 Hwy 8","Flaxton","ND","58737","10921 Hwy 8, Flaxton, ND 58737","","https://www.cbp.gov/about/contact/ports/northgate-north-dakota-3406"
"Tacoma, Washington, Washington - 3002","Port of Entry","Seattle","4813 Pacific Highway East","Fife","WA","98424","4813 Pacific Highway East, Fife, WA 98424","253-896-8500","https://www.cbp.gov/about/contact/ports/tacoma-washington-washington-3002"
"Oroville, WA, Washington - 3019","Port of Entry","Seattle","33643 Hwy 97","Oroville","WA","98844","33643 Hwy 97, Oroville, WA 98844","509-476-2955","https://www.cbp.gov/about/contact/ports/oroville-wa-washington-3019"
"Blaine, Washington - 3004","Port of Entry","Seattle","9901 Pacific Highway","Blaine","WA","98230","9901 Pacific Highway, Blaine, WA 98230","360-332-5771","https://www.cbp.gov/about/contact/ports/blaine-washington-3004"
"Seattle, Washington - 3001","Port of Entry","Seattle","17801 International Blvd","Seattle","WA","98158","17801 International Blvd, Seattle, WA 98158","206-214-2200","https://www.cbp.gov/about/contact/ports/seattle-washington-3001"
"Helena Regional Airport, Montana - 3348","Port of Entry","Seattle","2540 Airport Road","Helena","MT","59601","2540 Airport Road, Helena, MT 59601","406-449-5506","https://www.cbp.gov/about/contact/ports/helena-airport-montana-3348"
"Anacortes - 3010","Port of Entry","Seattle","1019 Q Ave.","Anacortes","WA","98221","1019 Q Ave., Anacortes, WA 98221","360-293-2331","https://www.cbp.gov/about/contact/ports/anacortes-3010"
"Friday Harbor - 3014","Port of Entry","Seattle","100 South First Street","Friday Harbor","WA","98250","100 South First Street, Friday Harbor, WA 98250","360-378-2080","https://www.cbp.gov/about/contact/ports/friday-harbor-3014"
"Bellingham - 3005","Port of Entry","Seattle","4241 Mitchell Way #13","Bellingham","WA","98250","4241 Mitchell Way #13, Bellingham, WA 98250","360-734-5463","https://www.cbp.gov/about/contact/ports/bellingham-3005"
"Tampa","Field Office","","5519 W Hillsborough Ave","Tampa","FL","33634","5519 W Hillsborough Ave, Tampa, FL 33634","813-712-6000","https://www.cbp.gov/about/contact/ports/field-office/tampa"
"Melbourne Orlando International Airport (UFA), Florida - 1885","Port of Entry","Tampa","One Air Terminal Parkway","Melbourne","FL","32901","One Air Terminal Parkway, Melbourne, FL 32901","321-674-5796","https://www.cbp.gov/about/contact/ports/melbourne-international-airport-ufa-florida-1885"
"Orlando Executive Airport (UFA), Florida - 1888","Port of Entry","Tampa","365 Rickenbacker Drive","Orlando","FL","32803","365 Rickenbacker Drive, Orlando, FL 32803","407-825-5102","https://www.cbp.gov/about/contact/ports/orlando-executive-airport-ufa-florida-1888"
"Pensacola, Florida, Florida - 1819","Port of Entry","Tampa","4121 Jerry L. Maygarden Road","Pensacola","FL","32504","4121 Jerry L. Maygarden Road, Pensacola, FL 32504","850-433-3205","https://www.cbp.gov/about/contact/ports/pensacola-florida-florida-1819"
"Fort Myers, Florida - 1822","Port of Entry","Tampa","11000 Terminal Access Road #8636","Fort Myers","FL","33913","11000 Terminal Access Road #8636, Fort Myers, FL 33913","239-477-7800","https://www.cbp.gov/about/contact/ports/fort-myers-florida-1822"
"Panama City, Florida - 1818","Port of Entry","Tampa","140 Richard Jackson Blvd. Suite 160","Panama City Beach","FL","32407","140 Richard Jackson Blvd. Suite 160, Panama City Beach, FL 32407","","https://www.cbp.gov/about/contact/ports/panama-city-florida-1818"
"Leesburg International Airport (UFA), Florida - 1887","Port of Entry","Tampa","8742 Airport Blvd","Leesburg","FL","34788","8742 Airport Blvd, Leesburg, FL 34788","352-787-4217","https://www.cbp.gov/about/contact/ports/leesburg-international-airport-ufa-florida-1887"
"Area Port of Jacksonville, Florida - 1803","Port of Entry","Tampa","10426 Alta Drive","Jacksonville","FL","32226","10426 Alta Drive, Jacksonville, FL 32226","904-714-3100","https://www.cbp.gov/about/contact/ports/area-port-jacksonville-florida-1803"
"Port Canaveral, Florida - 1816","Port of Entry","Tampa","200 George King Blvd","Cape Canaveral","FL","32920","200 George King Blvd, Cape Canaveral, FL 32920","321-783-2066","https://www.cbp.gov/about/contact/ports/cape-canaveral-florida-1816"
"Fernandina Beach, Florida - 1805","Port of Entry","Tampa","403 North Third Street","Fernandina Beach","FL","32034","403 North Third Street, Fernandina Beach, FL 32034","","https://www.cbp.gov/about/contact/ports/fernandina-beach-florida-1805"
"Daytona Beach International Airport (UFA), Florida - 1884","Port of Entry","Tampa","605 Innovation Way","Daytona Beach","FL","32114","605 Innovation Way, Daytona Beach, FL 32114","386-248-8043","https://www.cbp.gov/about/contact/ports/daytona-beach-international-airport-ufa-florida-1884"
"Orlando Sanford International Airport, Florida - 1809","Port of Entry","Tampa","1100 Red Cleveland Blvd., Suite 100","Sanford","FL","32773","1100 Red Cleveland Blvd., Suite 100, Sanford, FL 32773","407-585-6400","https://www.cbp.gov/about/contact/ports/orlando-sanford-international-airport-florida-1809"
"Naples, Florida - 1880","Port of Entry","Tampa","2460 Tower Drive","Naples","FL","34104","2460 Tower Drive, Naples, FL 34104","239-430-9321","https://www.cbp.gov/about/contact/ports/naples-florida-1880"
"St. Petersburg, Florida - 1814","Port of Entry","Tampa","14700 Terminal Blvd.","Clearwater","FL","33762","14700 Terminal Blvd., Clearwater, FL 33762","727-453-7080","https://www.cbp.gov/about/contact/ports/st-petersburg-florida-1814"
"Orlando International Airport, Florida - 1808","Port of Entry","Tampa","9043 Tradeport Drive","Orlando","FL","32827","9043 Tradeport Drive, Orlando, FL 32827","407-240-4462","https://www.cbp.gov/about/contact/ports/orlando-international-airport-florida-1808"
"Port Manatee, Florida - 1821","Port of Entry","Tampa","1905 Intermodal Circle","PALMETTO","FL","34221","1905 Intermodal Circle, PALMETTO, FL 34221","941-721-2380","https://www.cbp.gov/about/contact/ports/port-manatee-florida-1821"
"St. Augustine, Florida - 1889","Port of Entry","Tampa","396 Estrella Ave","St. Augustine","FL","32095","396 Estrella Ave, St. Augustine, FL 32095","","https://www.cbp.gov/about/contact/ports/st-augustine-florida-1889"
"Area Port of Tampa, Florida - 1801","Port of Entry","Tampa","5519 W Hillsborough Ave","Tampa","FL","33634","5519 W Hillsborough Ave, Tampa, FL 33634","813-249-8101","https://www.cbp.gov/about/contact/ports/area-port-tampa-florida-1801"
"Lakeland Linder Airport, Florida - 1881","Port of Entry","Tampa","3900 Don Emerson Dr.","Lakeland","FL","33811","3900 Don Emerson Dr., Lakeland, FL 33811","863-647-4870","https://www.cbp.gov/about/contact/ports/lakeland-linder-airport-florida-1881"
"Tucson","Field Office","","4760 N. Oracle Road","Tucson","AZ","85705","4760 N. Oracle Road, Tucson, AZ 85705","","https://www.cbp.gov/about/contact/ports/field-office/tucson"
"San Luis, Arizona - 2608","Port of Entry","Tucson","Highway 95 & International Border","San Luis","AZ","85349","Highway 95 & International Border, San Luis, AZ 85349","","https://www.cbp.gov/about/contact/ports/san-luis-arizona-2608"
"Phoenix, Arizona - 2605","Port of Entry","Tucson","3002 E. Old Tower Road, Suite 400","Phoenix","AZ","85034","3002 E. Old Tower Road, Suite 400, Phoenix, AZ 85034","","https://www.cbp.gov/about/contact/ports/phoenix-arizona-2605"
"Scottsdale Airport, Arizona - 2681","Port of Entry","Tucson","15000 N. Airport Drive","Scottsdale,","AZ","85260","15000 N. Airport Drive, Scottsdale,, AZ 85260","","https://www.cbp.gov/about/contact/ports/scottsdale-airport-arizona-2681"
"Douglas, Arizona - 2601","Port of Entry","Tucson","First Street and Pan American Avenue","Douglas","AZ","85607","First Street and Pan American Avenue, Douglas, AZ 85607","","https://www.cbp.gov/about/contact/ports/douglas-arizona-2601"
"Phoenix-Mesa Gateway Airport, Arizona - 2682","Port of Entry","Tucson","5803 S. Sossaman Rd.","Mesa","AZ","85212","5803 S. Sossaman Rd., Mesa, AZ 85212","","https://www.cbp.gov/about/contact/ports/phoenix-mesa-gateway-airport-arizona-2682"
"Naco, Arizona - 2603","Port of Entry","Tucson","3867 S. Towner Avenue","Naco","AZ","85620","3867 S. Towner Avenue, Naco, AZ 85620","","https://www.cbp.gov/about/contact/ports/naco-arizona-2603"
"Tucson, Arizona - 2609","Port of Entry","Tucson","7081 South Plumer Ave","Tucson","AZ","85756","7081 South Plumer Ave, Tucson, AZ 85756","","https://www.cbp.gov/about/contact/ports/tucson-arizona-2609"
"Sasabe, Arizona - 2606","Port of Entry","Tucson","Highway 286 and International Border","Sasabe","AZ","85633","Highway 286 and International Border, Sasabe, AZ 85633","","https://www.cbp.gov/about/contact/ports/sasabe-arizona-2606"
"Lukeville, Arizona - 2602","Port of Entry","Tucson","Highway 85 & Border","Lukeville","AZ","85341","Highway 85 & Border, Lukeville, AZ 85341","","https://www.cbp.gov/about/contact/ports/lukeville-arizona-2602"
"Nogales, Arizona - 2604","Port of Entry","Tucson","9 North Grand Ave.","Nogales","AZ","85621","9 North Grand Ave., Nogales, AZ 85621","520-287-1410","https://www.cbp.gov/about/contact/ports/nogales-arizona-2604"
"Big Bend Sector Texas","Sector","","300 Madrid Street","Marfa","TX","","Big Bend Border Patrol Sector, P.O. Box I, Marfa, TX 79843","432-729-5200","https://www.cbp.gov/border-security/along-us-borders/border-patrol-sectors/big-bend-sector-texas"
"Presidio Station","Station","Big Bend Sector Texas","Highways 170 and 67Post Office Box 929","Presidio","TX","79845","Highways 170 and 67Post Office Box 929, Presidio, TX 79845","432-229-3330","https://www.cbp.gov/border-security/along-us-borders/border-patrol-sectors/big-bend-sector-texas/presidio-station-prs"
"Van Horn Station","Station","Big Bend Sector Texas","500 Laurel StreetPost Office Box 368","Van Horn","TX","79855","500 Laurel StreetPost Office Box 368, Van Horn, TX 79855","432-283-3100","https://www.cbp.gov/border-security/along-us-borders/border-patrol-sectors/big-bend-sector-texas/van-horn-station-vht"
"Alpine Station","Station","Big Bend Sector Texas","3003 West Highway 90","Alpine","TX","79830","3003 West Highway 90, Alpine, TX 79830","432-837-6100","https://www.cbp.gov/border-security/along-us-borders/border-patrol-sectors/big-bend-sector-texas/alpine-station-apt"
"Sierra Blanca Station","Station","Big Bend Sector Texas","900 Aztec DrivePost Office Box 8","Sierra Blanca","TX","79851","900 Aztec DrivePost Office Box 8, Sierra Blanca, TX 79851","915-369-4000","https://www.cbp.gov/border-security/along-us-borders/border-patrol-sectors/big-bend-sector-texas/sierra-blanca-station-sbt"
"Fort Stockton Station","Station","Big Bend Sector Texas","1801 Front StreetPost Office Box 607Fort St","ockton","TX","79735","1801 Front StreetPost Office Box 607Fort St, ockton, TX 79735","432-336-2468","https://www.cbp.gov/border-security/along-us-borders/border-patrol-sectors/big-bend-sector-texas/fort-stockton-station-fts"
"Marfa Station","Station","Big Bend Sector Texas","717 South HighlandPost Office Box ""I""","Marfa","TX","79843","717 South HighlandPost Office Box ""I"", Marfa, TX 79843","432-729-5600","https://www.cbp.gov/border-security/along-us-borders/border-patrol-sectors/big-bend-sector-texas/marfa-station-mrs"
"Sanderson Station","Station","Big Bend Sector Texas","Highway 90 WestPost Office Box 628","Sanderson","TX","79848","Highway 90 WestPost Office Box 628, Sanderson, TX 79848","432-345-2972","https://www.cbp.gov/border-security/along-us-borders/border-patrol-sectors/big-bend-sector-texas/sanderson-station-snn"
"Blaine Sector Washington","Sector","","2410 Nature's Path Way","Blaine","WA","","2410 Nature's Path Way, Blaine, WA 98230","360-332-9200","https://www.cbp.gov/border-security/along-us-borders/border-patrol-sectors/blaine-sector-washington"
"Sumas Station","Station","Blaine Sector Washington","9648 Garrison Road","Sumas","WA","98295","9648 Garrison Road, Sumas, WA 98295","360-988-5520","https://www.cbp.gov/border-security/along-us-borders/border-patrol-sectors/blaine-sector-washington/sumas-station"
"Blaine Station","Station","Blaine Sector Washington","1580 H Street","Blaine","WA","98230","1580 H Street, Blaine, WA 98230","360-332-1721","https://www.cbp.gov/border-security/along-us-borders/border-patrol-sectors/blaine-sector-washington/blaine-station"
"Port Angeles Station","Station","Blaine Sector Washington","110 South Penn Street","Port Angeles","WA","98362","110 South Penn Street, Port Angeles, WA 98362","360-565-7300","https://www.cbp.gov/border-security/along-us-borders/border-patrol-sectors/blaine-sector-washington/port-angeles-station"
"Bellingham Station","Station","Blaine Sector Washington","Physical and Mailing Bellingham 1431 Sunset AvenueFerndale","Bellingham","WA","98248","Physical and Mailing Bellingham 1431 Sunset AvenueFerndale, Bellingham, WA 98248","360-380-0408","https://www.cbp.gov/border-security/along-us-borders/border-patrol-sectors/blaine-sector-washington/bellingham-station"
"Buffalo Sector New York","Sector","","201 Lang Boulevard","Grand Island","NY","14072","201 Lang Boulevard, Grand Island, NY 14072","716-774-7200","https://www.cbp.gov/border-security/along-us-borders/border-patrol-sectors/buffalo-sector-new-york"
"Erie Station","Station","Buffalo Sector New York","7851 Traut Drive","Fairview","PA","16415","7851 Traut Drive, Fairview, PA 16415","814-474-4700","https://www.cbp.gov/border-security/along-us-borders/border-patrol-sectors/buffalo-sector-new-york/erie-station"
"Oswego Station","Station","Buffalo Sector New York","19 East","Schuyler StreetOswego","NY","13126","19 East, Schuyler StreetOswego, NY 13126","315-342-7017","https://www.cbp.gov/border-security/along-us-borders/border-patrol-sectors/buffalo-sector-new-york/oswego-station"
"Rochester Station","Station","Buffalo Sector New York","171 Pattonwood Drive","Rochester","NY","14617","171 Pattonwood Drive, Rochester, NY 14617","585-266-2802","https://www.cbp.gov/border-security/along-us-borders/border-patrol-sectors/buffalo-sector-new-york/rochester-station"
"Wellesley Island Station","Station","Buffalo Sector New York","45764 Landon Road","Wellesley Island","NY","13640","45764 Landon Road, Wellesley Island, NY 13640","","https://www.cbp.gov/border-security/along-us-borders/border-patrol-sectors/buffalo-sector-new-york/wellesley-island-station"
"Buffalo Station","Station","Buffalo Sector New York","600 Colvin Woods Parkway","Tonawanda","NY","14150","600 Colvin Woods Parkway, Tonawanda, NY 14150","716-862-7000","https://www.cbp.gov/border-security/along-us-borders/border-patrol-sectors/buffalo-sector-new-york/buffalo-station"
"Niagara Falls Station","Station","Buffalo Sector New York","1708 Lafayette Avenue","Niagara Falls","NY","14305","1708 Lafayette Avenue, Niagara Falls, NY 14305","716-285-6444","https://www.cbp.gov/border-security/along-us-borders/border-patrol-sectors/buffalo-sector-new-york/niagara-falls-station"
"Del Rio Sector Texas","Sector","","2401 Dodson Avenue","Del Rio","TX","","Del Rio Border Patrol Sector, 2401 Dodson Avenue, Del Rio, TX 78840","830-778-7000","https://www.cbp.gov/border-security/along-us-borders/border-patrol-sectors/del-rio-sector-texas"
"San Angelo Station","Station","Del Rio Sector Texas","8210 Hangar Road","San Angelo","TX","76904","8210 Hangar Road, San Angelo, TX 76904","325-949-0139","https://www.cbp.gov/border-security/along-us-borders/border-patrol-sectors/del-rio-sector-texas/san-angelo-station"
"Del Rio Station","Station","Del Rio Sector Texas","2300 Highway 90 East","Del Rio","TX","78840","2300 Highway 90 East, Del Rio, TX 78840","830-778-3000","https://www.cbp.gov/border-security/along-us-borders/border-patrol-sectors/del-rio-sector-texas/del-rio-station"
"Brackettville Station","Station","Del Rio Sector Texas","802 W. Spring St.","Brackettville","TX","78832","802 W. Spring St., Brackettville, TX 78832","830-563-6000","https://www.cbp.gov/border-security/along-us-borders/border-patrol-sectors/del-rio-sector-texas/brackettville-station"
"Comstock Station","Station","Del Rio Sector Texas","27685 Highway 90 West","Comstock","TX","78837","27685 Highway 90 West, Comstock, TX 78837","432-292-4600","https://www.cbp.gov/border-security/along-us-borders/border-patrol-sectors/del-rio-sector-texas/comstock-station"
"Abilene Station","Station","Del Rio Sector Texas","1945 Indust","rial BlvdAbilene","TX","79602","1945 Indust, rial BlvdAbilene, TX 79602","325-698-5552","https://www.cbp.gov/border-security/along-us-borders/border-patrol-sectors/del-rio-sector-texas/abilene-station"
"Eagle Pass Station","Station","Del Rio Sector Texas","2285 Del Rio Blvd.","Eagle Pass","TX","78852","2285 Del Rio Blvd., Eagle Pass, TX 78852","830-758-4000","https://www.cbp.gov/border-security/along-us-borders/border-patrol-sectors/del-rio-sector-texas/eagle-pass-station"
"Eagle Pass South Station","Station","Del Rio Sector Texas","4156 El Indio Highway","Eagle Pass","TX","78852","4156 El Indio Highway, Eagle Pass, TX 78852","830-752-3300","https://www.cbp.gov/border-security/along-us-borders/border-patrol-sectors/del-rio-sector-texas/eagle-pass-south-station"
"Donna M. Doss Station","Station","Del Rio Sector Texas","605 W. Main Street P.O. Box 576 Rocksprings","Donna M. Doss","TX","78880","605 W. Main Street P.O. Box 576 Rocksprings, Donna M. Doss, TX 78880","830-683-2255","https://www.cbp.gov/border-security/along-us-borders/border-patrol-sectors/del-rio-sector-texas/donna-m-doss-station"
"Carrizo Springs Station","Station","Del Rio Sector Texas","1868 Hwy 85 East","Carrizo Springs","TX","78834","1868 Hwy 85 East, Carrizo Springs, TX 78834","830-876-1453","https://www.cbp.gov/border-security/along-us-borders/border-patrol-sectors/del-rio-sector-texas/carrizo-springs-station"
"Uvalde Station","Station","Del Rio Sector Texas","#30 Industrial Park","Uvalde","TX","78801","#30 Industrial Park, Uvalde, TX 78801","830-486-7600","https://www.cbp.gov/border-security/along-us-borders/border-patrol-sectors/del-rio-sector-texas/uvalde-station"
"Detroit Sector Michigan","Sector","","","","","","26000 South Street, Building 1516, Selfridge ANGB, MI 48045.","586-239-2160","https://www.cbp.gov/border-security/along-us-borders/border-patrol-sectors/detroit-sector"
"Sandusky Bay Station","Station","Detroit Sector Michigan","General Information709 SE Catawba RoadPort Clinton","Sandusky Bay","OH","43452","General Information709 SE Catawba RoadPort Clinton, Sandusky Bay, OH 43452","419-732-4400","https://www.cbp.gov/border-security/along-us-borders/border-patrol-sectors/detroit-sector/sandusky-bay-station"
"Sault Sainte Marie Station","Station","Detroit Sector Michigan","General Information 208 Bingham AveSault Ste. Marie","Sault Sainte Marie","MI","49783","General Information 208 Bingham AveSault Ste. Marie, Sault Sainte Marie, MI 49783","906-632-3383","https://www.cbp.gov/border-security/along-us-borders/border-patrol-sectors/detroit-sector-selfridge-angb-michigan/sault-sainte-marie-station"
"Marysville Station","Station","Detroit Sector Michigan","Photo of General Information2600 Wills Road","Marysville","MI","48040","Photo of General Information2600 Wills Road, Marysville, MI 48040","810-989-5056","https://www.cbp.gov/border-security/along-us-borders/border-patrol-sectors/detroit-sector-selfridge-angb-michigan/marysville-station"
"Gibraltar Station","Station","Detroit Sector Michigan","General Information14801 Middle Gibraltar Rd.","Gibraltar","MI","48173","General Information14801 Middle Gibraltar Rd., Gibraltar, MI 48173","734-676-2972","https://www.cbp.gov/border-security/along-us-borders/border-patrol-sectors/detroit-sector-selfridge-angb-michigan/gibraltar-station"
"Detroit Station","Station","Detroit Sector Michigan","","","","","","313-926-4700","https://www.cbp.gov/border-security/along-us-borders/border-patrol-sectors/detroit-sector-selfridge-angb-michigan/detroit-station"
"El Centro Sector California","Sector","","211 West Aten Road.","Imperial","CA","92251","211 West Aten Road., Imperial, CA 92251","760-335-5700","https://www.cbp.gov/border-security/along-us-borders/border-patrol-sectors/el-centro-sector-california"
"El Centro Station","Station","El Centro Sector California","221 West","Aten RoadImperial","CA","92251","221 West, Aten RoadImperial, CA 92251","760-337-7100","https://www.cbp.gov/border-security/along-us-borders/border-patrol-sectors/el-centro-sector-california/el-centro-station"
"Calexico Station","Station","El Centro Sector California","1150 Birch Street","Calexico","CA","92231","1150 Birch Street, Calexico, CA 92231","760-768-7000","https://www.cbp.gov/border-security/along-us-borders/border-patrol-sectors/el-centro-sector-california/calexico-station"
"Indio Station","Station","El Centro Sector California","45-620 Commerce Street","Indio","CA","92201","45-620 Commerce Street, Indio, CA 92201","760-347-3658","https://www.cbp.gov/border-security/along-us-borders/border-patrol-sectors/el-centro-sector-california/indio-station"
"Grand Forks Sector North Dakota","Sector","","1816 17th Street NE","Grand Forks","ND","58203","1816 17th Street NE, Grand Forks, ND 58203","701-772-3056","https://www.cbp.gov/border-security/along-us-borders/border-patrol-sectors/grand-forks-sector-north-dakota"
"Pembina Station","Station","Grand Forks Sector North Dakota","388 Division Street","Pembina","ND","58271","388 Division Street, Pembina, ND 58271","701-825-6640","https://www.cbp.gov/border-security/along-us-borders/border-patrol-sectors/grand-forks-sector-north-dakota/pembina-station"
"International Falls Station","Station","Grand Forks Sector North Dakota","312 Highway 11 East","International Falls","MN","56649","312 Highway 11 East, International Falls, MN 56649","218-285-3423","https://www.cbp.gov/border-security/along-us-borders/border-patrol-sectors/grand-forks-sector-north-dakota/international-falls-station"
"Portal Station","Station","Grand Forks Sector North Dakota","500 2nd Avenue","EastPortal","ND","58772","500 2nd Avenue, EastPortal, ND 58772","701-926-7570","https://www.cbp.gov/border-security/along-us-borders/border-patrol-sectors/grand-forks-sector-north-dakota/portal-station"
"Bottineau Station","Station","Grand Forks Sector North Dakota","1235 11th Street EastP.O. Box 6","Bottineau","ND","58318","1235 11th Street EastP.O. Box 6, Bottineau, ND 58318","701-228-3179","https://www.cbp.gov/border-security/along-us-borders/border-patrol-sectors/grand-forks-sector-north-dakota/bottineau-station"
"Warroad Station","Station","Grand Forks Sector North Dakota","502 State Avenue South, Highway 11PO Box 24","Warroad","MN","56763","502 State Avenue South, Highway 11PO Box 24, Warroad, MN 56763","218-386-1802","https://www.cbp.gov/border-security/along-us-borders/border-patrol-sectors/grand-forks-sector-north-dakota/warroad-station"
"Grand Marais Station","Station","Grand Forks Sector North Dakota","518 E. Hwy 61","Grand Marais","MN","55604","518 E. Hwy 61, Grand Marais, MN 55604","218-387-1770","https://www.cbp.gov/border-security/along-us-borders/border-patrol-sectors/grand-forks-sector-north-dakota/grand-marais-station"
"Duluth Station","Station","Grand Forks Sector North Dakota","4431 Endeavor Drive","Duluth","MN","55811","4431 Endeavor Drive, Duluth, MN 55811","218-720-5465","https://www.cbp.gov/border-security/along-us-borders/border-patrol-sectors/grand-forks-sector-north-dakota/duluth-station"
"Havre Sector Montana","Sector","","2605 5th Avenue SE","Havre","MT","","2605 5th Ave. SE, Havre, MT 59501","406-262-5600","https://www.cbp.gov/border-security/along-us-borders/border-patrol-sectors/havre-sector-montana"
"St. Mary Station","Station","Havre Sector Montana","4999 US Highway 89Port of PieganBabb","St. Mary","MT","59411","4999 US Highway 89Port of PieganBabb, St. Mary, MT 59411","406-732-5982","https://www.cbp.gov/border-security/along-us-borders/border-patrol-sectors/havre-sector-montana/st-mary-station"
"Havre Station","Station","Havre Sector Montana","345 16th Avenue WPO Box 1629","Havre","MT","59501","345 16th Avenue WPO Box 1629, Havre, MT 59501","406-395-6100","https://www.cbp.gov/border-security/along-us-borders/border-patrol-sectors/havre-sector-montana/havre-station"
"Plentywood Station","Station","Havre Sector Montana","31 Highway 16 NP.O. Box 434","Plentywood","MT","59254","31 Highway 16 NP.O. Box 434, Plentywood, MT 59254","406-765-1852","https://www.cbp.gov/border-security/along-us-borders/border-patrol-sectors/havre-sector-montana/plentywood-station"
"Scobey Station","Station","Havre Sector Montana","131 C HWY 5 EP.O. Box 820","Scobey","MT","59263","131 C HWY 5 EP.O. Box 820, Scobey, MT 59263","406-487-2621","https://www.cbp.gov/border-security/along-us-borders/border-patrol-sectors/havre-sector-montana/scobey-station"
"Malta Station","Station","Havre Sector Montana","47152 U.S. Highway 2P.O. Box 36","Malta","MT","59538","47152 U.S. Highway 2P.O. Box 36, Malta, MT 59538","406-654-2711","https://www.cbp.gov/border-security/along-us-borders/border-patrol-sectors/havre-sector-montana/malta-station"
"Sweetgrass Station","Station","Havre Sector Montana","P.O. Box 10037 Nine Mile RoadSunburst","Sweetgrass","MT","59482","P.O. Box 10037 Nine Mile RoadSunburst, Sweetgrass, MT 59482","406-937-8800","https://www.cbp.gov/border-security/along-us-borders/border-patrol-sectors/havre-sector-montana/sweetgrass-station"
"Houlton Sector Maine","Sector","","","","","","","","https://www.cbp.gov/border-security/along-us-borders/border-patrol-sectors/houlton-sector-maine"
"Van Buren Station","Station","Houlton Sector Maine","Physical 9 Main StreetVan Buren, Maine 04785Mailing AddressP.O. Box 28","Van Buren","ME","04785","Physical 9 Main StreetVan Buren, Maine 04785Mailing AddressP.O. Box 28, Van Buren, ME 04785","207-868-3900","https://www.cbp.gov/border-security/along-us-borders/border-patrol-sectors/houlton-sector-maine/van-buren-station"
"Jackman Station","Station","Houlton Sector Maine","229 Long Pond Road","Jackman","ME","04945","229 Long Pond Road, Jackman, ME 04945","207-668-3151","https://www.cbp.gov/border-security/along-us-borders/border-patrol-sectors/houlton-sector-maine/jackman-station"
"Fort Fairfield Station","Station","Houlton Sector Maine","200 Limest","one RoadFort Fairfield","ME","04742","200 Limest, one RoadFort Fairfield, ME 04742","207-472-5041","https://www.cbp.gov/border-security/along-us-borders/border-patrol-sectors/houlton-sector-maine/fort-fairfield-station"
"Houlton Station","Station","Houlton Sector Maine","591 North Street","Houlton","ME","04730","591 North Street, Houlton, ME 04730","207-532-9061","https://www.cbp.gov/border-security/along-us-borders/border-patrol-sectors/houlton-sector-maine/houlton-station"
"Rangeley Station","Station","Houlton Sector Maine","Physical 224 Stratton RoadDallas Plantation","Rangeley","ME","04970","Physical 224 Stratton RoadDallas Plantation, Rangeley, ME 04970","207-864-5356","https://www.cbp.gov/border-security/along-us-borders/border-patrol-sectors/houlton-sector-maine/rangeley-station"
"Calais Station","Station","Houlton Sector Maine","67 Park Road","Baring","ME","04694","67 Park Road, Baring, ME 04694","207-454-3613","https://www.cbp.gov/border-security/along-us-borders/border-patrol-sectors/houlton-sector-maine/calais-station"
"Laredo Sector Texas","Sector","","207 W. Del Mar Blvd.","Laredo","TX","","207 W. Del Mar Blvd., Laredo, TX 78041","956-764-3200","https://www.cbp.gov/border-security/along-us-borders/border-patrol-sectors/laredo-sector-texas"
"Laredo South Station","Station","Laredo Sector Texas","9001 San Dario Avenue","Laredo","TX","78045","9001 San Dario Avenue, Laredo, TX 78045","956-764-3600","https://www.cbp.gov/border-security/along-us-borders/border-patrol-sectors/laredo-sector-texas/laredo-south-station"
"Dallas Station","Station","Laredo Sector Texas","2800 South Pipeline Road","Euless","TX","76040","2800 South Pipeline Road, Euless, TX 76040","817-571-2146","https://www.cbp.gov/border-security/along-us-borders/border-patrol-sectors/laredo-sector-texas/dallas-station"
"Cotulla Station","Station","Laredo Sector Texas","3423 Interstate Highway 35","Cotulla","TX","78014","3423 Interstate Highway 35, Cotulla, TX 78014","210-242-1600","https://www.cbp.gov/border-security/along-us-borders/border-patrol-sectors/laredo-sector-texas/cotulla-station"
"Hebbronville Station","Station","Laredo Sector Texas","34 East Highway 359","Hebbronville","TX","78361","34 East Highway 359, Hebbronville, TX 78361","361-886-1700","https://www.cbp.gov/border-security/along-us-borders/border-patrol-sectors/laredo-sector-texas/hebbronville-station"
"Zapata Station","Station","Laredo Sector Texas","105 Kennedy Street","Zapata","TX","78076","105 Kennedy Street, Zapata, TX 78076","","https://www.cbp.gov/border-security/along-us-borders/border-patrol-sectors/laredo-sector-texas/zapata-station"
"Laredo West Station","Station","Laredo Sector Texas","Colombia Port of Entry202 State Highway 255Laredo","Laredo West","TX","78045","Colombia Port of Entry202 State Highway 255Laredo, Laredo West, TX 78045","","https://www.cbp.gov/border-security/along-us-borders/border-patrol-sectors/laredo-sector-texas/laredo-west-station"
"Freer Station","Station","Laredo Sector Texas","5087 Highway 44","Freer","TX","78357","5087 Highway 44, Freer, TX 78357","","https://www.cbp.gov/border-security/along-us-borders/border-patrol-sectors/laredo-sector-texas/freer-station"
"Laredo North Station","Station","Laredo Sector Texas","11119 McPherson Road","Laredo","TX","78045","11119 McPherson Road, Laredo, TX 78045","","https://www.cbp.gov/border-security/along-us-borders/border-patrol-sectors/laredo-sector-texas/laredo-north-station"
"San Antonio Station","Station","Laredo Sector Texas","5000 N.W. Industrial Drive","San Antonio","TX","78238","5000 N.W. Industrial Drive, San Antonio, TX 78238","210-521-7926","https://www.cbp.gov/border-security/along-us-borders/border-patrol-sectors/laredo-sector-texas/san-antonio-station"
"Miami Sector Florida","Sector","","15720 Pines Boulevard","Pembroke Pines","FL","","15720 Pines Boulevard, Pembroke Pines, FL 33027","954-965-6300","https://www.cbp.gov/border-security/along-us-borders/border-patrol-sectors/miami-sector-florida"
"Tampa Station","Station","Miami Sector Florida","3811 Corporex Park Drive","Tampa","FL","33619","3811 Corporex Park Drive, Tampa, FL 33619","813-623-5101","https://www.cbp.gov/border-security/along-us-borders/border-patrol-sectors/miami-sector-florida/tampa-station"
"Marathon Station","Station","Miami Sector Florida","3770 Oversees Highway","Fat Deer KeyMarathon","FL","33050","3770 Oversees Highway, Fat Deer KeyMarathon, FL 33050","305-289-0942","https://www.cbp.gov/border-security/along-us-borders/border-patrol-sectors/miami-sector-florida/marathon-station"
"West Palm Beach Station","Station","Miami Sector Florida","3301 Lake Shore Drive","Riviera Beach","FL","33404","3301 Lake Shore Drive, Riviera Beach, FL 33404","561-848-6161","https://www.cbp.gov/border-security/along-us-borders/border-patrol-sectors/miami-sector-florida/west-palm-beach-station"
"Jacksonville Station","Station","Miami Sector Florida","489 Dundas Drive","Jacksonville","FL","32218","489 Dundas Drive, Jacksonville, FL 32218","904-714-0225","https://www.cbp.gov/border-security/along-us-borders/border-patrol-sectors/miami-sector-florida/jacksonville-station"
"Dania Beach Station","Station","Miami Sector Florida","1800 NE 7th Avenue","Dania Beach","FL","33004","1800 NE 7th Avenue, Dania Beach, FL 33004","954-496-8300","https://www.cbp.gov/border-security/along-us-borders/border-patrol-sectors/miami-sector-florida/dania-beach-station"
"Orlando Station","Station","Miami Sector Florida","2348 Trade Port Drive","Orlando","FL","32824","2348 Trade Port Drive, Orlando, FL 32824","407-967-4000","https://www.cbp.gov/border-security/along-us-borders/border-patrol-sectors/miami-sector-florida/orlando-station"
"New Orleans Sector Louisiana","Sector","","","","","","P.O. Box 6218, New Orleans, LA 70174-6218","504-376-2800","https://www.cbp.gov/border-security/along-us-borders/border-patrol-sectors/new-orleans-sector-louisiana"
"New Orleans Station","Station","New Orleans Sector Louisiana","Physical 3819 Patterson RoadNew Orleans, LA 70114Mailing Address:P.O. Box 6218","New Orleans","LA","70174","Physical 3819 Patterson RoadNew Orleans, LA 70114Mailing Address:P.O. Box 6218, New Orleans, LA 70174","504-376-2830","https://www.cbp.gov/border-security/along-us-borders/border-patrol-sectors/new-orleans-sector-louisiana/new-orleans-station"
"Gulfport Station","Station","New Orleans Sector Louisiana","10400 Larkin-Smith Drive","Gulfport","MS","39503","10400 Larkin-Smith Drive, Gulfport, MS 39503","228-896-0884","https://www.cbp.gov/border-security/along-us-borders/border-patrol-sectors/new-orleans-sector-louisiana/gulfport-station"
"Lake Charles Station","Station","New Orleans Sector Louisiana","Physical 152 Marine Street","Lake Charles","LA","70601","Physical 152 Marine Street, Lake Charles, LA 70601","337-721-3400","https://www.cbp.gov/border-security/along-us-borders/border-patrol-sectors/new-orleans-sector-louisiana/lake-charles-station"
"Mobile Station","Station","New Orleans Sector Louisiana","4425 Demetropolis Road","Mobile","AL","36619","4425 Demetropolis Road, Mobile, AL 36619","251-660-1445","https://www.cbp.gov/border-security/along-us-borders/border-patrol-sectors/new-orleans-sector-louisiana/mobile-station"
"Baton Rouge Station","Station","New Orleans Sector Louisiana","11655 Southfork Avenue","Baton Rouge","LA","70816","11655 Southfork Avenue, Baton Rouge, LA 70816","225-298-5501","https://www.cbp.gov/border-security/along-us-borders/border-patrol-sectors/new-orleans-sector-louisiana/baton-rouge-station"
"Ramey Sector Aguadilla Puerto Rico","Sector","","","","","","P.O. Box 250467, Ramey, PR 00604; Physical address: 723 Belt St Aguadilla, PR 00603","787-890-4747","https://www.cbp.gov/border-security/along-us-borders/border-patrol-sectors/ramey-sector-aguadilla-puerto-rico"
"Ramey Station","Station","Ramey Sector Aguadilla Puerto Rico","Physical 722 Belt St.Aguadilla, PR 00603Mailing AddressP.O. Box 250467Aguadilla","Ramey","PR","00604","Physical 722 Belt St.Aguadilla, PR 00603Mailing AddressP.O. Box 250467Aguadilla, Ramey, PR 00604","787-890-4747","https://www.cbp.gov/border-security/along-us-borders/border-patrol-sectors/ramey-sector-aguadilla-puerto-rico/ramey-station"
"Rio Grande Valley Sector Texas","Sector","","4400 South Expressway 281","Edinburg","TX","","4400 South Expressway 281, Edinburg, Texas 78542","","https://www.cbp.gov/border-security/along-us-borders/border-patrol-sectors/rio-grande-valley-sector-texas"
"Rio Grande City Station","Station","Rio Grande Valley Sector Texas","730 Bord","er Patrol LaneRio Grande City","TX","78582","730 Bord, er Patrol LaneRio Grande City, TX 78582","956-487-1044","https://www.cbp.gov/border-security/along-us-borders/border-patrol-sectors/rio-grande-valley-sector-texas/rio-grande-city-station"
"Harlingen Station","Station","Rio Grande Valley Sector Texas","","","","","","","https://www.cbp.gov/border-security/along-us-borders/border-patrol-sectors/rio-grande-valley-sector-texas/harlingen-station"
"Fort Brown Station","Station","Rio Grande Valley Sector Texas","3305 S. Expressway 83Brownsville","Fort Brown","TX","78521","3305 S. Expressway 83Brownsville, Fort Brown, TX 78521","956-983-7100","https://www.cbp.gov/border-security/along-us-borders/border-patrol-sectors/rio-grande-valley-sector-texas/fort-brown-station"
"McAllen Station","Station","Rio Grande Valley Sector Texas","3000 West","Military HighwayMcAllen","TX","78503","3000 West, Military HighwayMcAllen, TX 78503","956-217-3700","https://www.cbp.gov/border-security/along-us-borders/border-patrol-sectors/rio-grande-valley-sector-texas/mcallen-station"
"Brownsville Station","Station","Rio Grande Valley Sector Texas","","","","","","","https://www.cbp.gov/border-security/along-us-borders/border-patrol-sectors/rio-grande-valley-sector-texas/brownsville-station"
"Falfurrias Station","Station","Rio Grande Valley Sector Texas","P.O. Box 479 (Mailing )933 County Road 300 (Physical Address)","Falfurrias","TX","78355","P.O. Box 479 (Mailing )933 County Road 300 (Physical Address), Falfurrias, TX 78355","361-325-7000","https://www.cbp.gov/border-security/along-us-borders/border-patrol-sectors/rio-grande-valley-sector-texas/falfurrias-station"
"Corpus Christi Station","Station","Rio Grande Valley Sector Texas","","","","","","","https://www.cbp.gov/border-security/along-us-borders/border-patrol-sectors/rio-grande-valley-sector-texas/corpus-christi-station"
"Weslaco Station","Station","Rio Grande Valley Sector Texas","1501 E. Expressway 83","Weslaco","TX","78559","1501 E. Expressway 83, Weslaco, TX 78559","956-647-8800","https://www.cbp.gov/border-security/along-us-borders/border-patrol-sectors/rio-grande-valley-sector-texas/weslaco-station"
"Kingsville Station","Station","Rio Grande Valley Sector Texas","2422 E. Senator Carlos Truan Blvd.","Kingsville","TX","78363","2422 E. Senator Carlos Truan Blvd., Kingsville, TX 78363","361-595-8700","https://www.cbp.gov/border-security/along-us-borders/border-patrol-sectors/rio-grande-valley-sector-texas/kingsville-station"
"San Diego Sector California","Sector","","2411 Boswell Road","Chula Vista","CA","","2411 Boswell Road, Chula Vista, CA","","https://www.cbp.gov/border-security/along-us-borders/border-patrol-sectors/san-diego-sector-california"
"Imperial Beach Station","Station","San Diego Sector California","","","","","","","https://www.cbp.gov/border-security/along-us-borders/border-patrol-sectors/san-diego-sector-california/imperial-beach-station"
"Brown Field Station","Station","San Diego Sector California","","","","","","","https://www.cbp.gov/border-security/along-us-borders/border-patrol-sectors/san-diego-sector-california/brown-field-station"
"Campo Station","Station","San Diego Sector California","32355 Old Highway 80Pine Valley","Campo","CA","91962","32355 Old Highway 80Pine Valley, Campo, CA 91962","619-938-8700","https://www.cbp.gov/border-security/along-us-borders/border-patrol-sectors/san-diego-sector-california/campo-station"
"San Clemente Station","Station","San Diego Sector California","","","","","","","https://www.cbp.gov/border-security/along-us-borders/border-patrol-sectors/san-diego-sector-california/san-clemente-station"
"El Cajon Station","Station","San Diego Sector California","","","","","","","https://www.cbp.gov/border-security/along-us-borders/border-patrol-sectors/san-diego-sector-california/el-cajon-station"
"Theodore L. Newton, Jr. and George F. Azrak Station","Station","San Diego Sector California","","","","","","","https://www.cbp.gov/border-security/along-us-borders/border-patrol-sectors/san-diego-sector-california/murrieta-station"
"Chula Vista Station","Station","San Diego Sector California","USBP P.O. BOX 210038","Chula Vista","CA","91921","USBP P.O. BOX 210038, Chula Vista, CA 91921","","https://www.cbp.gov/border-security/along-us-borders/border-patrol-sectors/san-diego-sector-california/chula-vista-station"
"Boulevard Station","Station","San Diego Sector California","2463 Ribbonwood Rd.","Boulevard","CA","91905","2463 Ribbonwood Rd., Boulevard, CA 91905","619-766-3000","https://www.cbp.gov/border-security/along-us-borders/border-patrol-sectors/san-diego-sector-california/boulevard-station"
"Spokane Sector Washington","Sector","","10710 N. Newport Highway","Spokane","WA","99218","10710 N. Newport Highway, Spokane, WA 99218","509-353-2747","https://www.cbp.gov/border-security/along-us-borders/border-patrol-sectors/spokane-sector"
"Bonners Ferry Station","Station","Spokane Sector Washington","","","","","","","https://www.cbp.gov/border-security/along-us-borders/border-patrol-sectors/spokane-sector-washington/bonners-ferry-station"
"Colville Station","Station","Spokane Sector Washington","","","","","","","https://www.cbp.gov/border-security/along-us-borders/border-patrol-sectors/spokane-sector-washington/colville-station"
"Curlew Station","Station","Spokane Sector Washington","P.O. Box 444#5 Forest Lane","Curlew","WA","99118","P.O. Box 444#5 Forest Lane, Curlew, WA 99118","509-779-4376","https://www.cbp.gov/border-security/along-us-borders/border-patrol-sectors/spokane-sector-washington/curlew-station"
"Eureka Station","Station","Spokane Sector Washington","","","","","","","https://www.cbp.gov/border-security/along-us-borders/border-patrol-sectors/spokane-sector-washington/eureka-station"
"Metaline Falls Station","Station","Spokane Sector Washington","","","","","","","https://www.cbp.gov/border-security/along-us-borders/border-patrol-sectors/spokane-sector-washington/metaline-falls-station"
"Oroville Station","Station","Spokane Sector Washington","","","","","","","https://www.cbp.gov/border-security/along-us-borders/border-patrol-sectors/spokane-sector-washington/oroville-station"
"Whitefish Station","Station","Spokane Sector Washington","1335 Hwy 93 West","Whitefish","MT","59937","1335 Hwy 93 West, Whitefish, MT 59937","406-862-2561","https://www.cbp.gov/border-security/along-us-borders/border-patrol-sectors/spokane-sector-washington/whitefish-station"
"Swanton Sector Vermont","Sector","","155 Grand Avenue","Swanton","VT","","155 Grand Ave, Swanton, VT 05488","","https://www.cbp.gov/border-security/along-us-borders/border-patrol-sectors/swanton-sector-vermont"
"Beecher Falls Station","Station","Swanton Sector Vermont","288 VT Route 114Canaan","Beecher Falls","VT","05903","288 VT Route 114Canaan, Beecher Falls, VT 05903","","https://www.cbp.gov/border-security/along-us-borders/border-patrol-sectors/swanton-sector-vermont/beecher-falls-station"
"Massena Station","Station","Swanton Sector Vermont","","","","","","315-769-2342","https://www.cbp.gov/border-security/along-us-borders/border-patrol-sectors/swanton-sector-vermont/massena-station"
"Ogdensburg Station","Station","Swanton Sector Vermont","127 North Water","StreetOgdensburg","NY","13669","127 North Water, StreetOgdensburg, NY 13669","315-393-1150","https://www.cbp.gov/border-security/along-us-borders/border-patrol-sectors/swanton-sector-vermont/ogdensburg-station"
"Champlain Station","Station","Swanton Sector Vermont","1969 Ridge Road","Champlain","NY","12919","1969 Ridge Road, Champlain, NY 12919","518-298-2531","https://www.cbp.gov/border-security/along-us-borders/border-patrol-sectors/swanton-sector-vermont/champlain-station"
"Burke Station","Station","Swanton Sector Vermont","4525 State Route 11 Malone","Burke","NY","12953","4525 State Route 11 Malone, Burke, NY 12953","518-483-5941","https://www.cbp.gov/border-security/along-us-borders/border-patrol-sectors/swanton-sector-vermont/burke-station"
"Newport Station","Station","Swanton Sector Vermont","373 Citizens Road","Derby","VT","05829","373 Citizens Road, Derby, VT 05829","802-334-1333","https://www.cbp.gov/border-security/along-us-borders/border-patrol-sectors/swanton-sector-vermont/newport-station"
"Richford Station","Station","Swanton Sector Vermont","P.O. Box 671668 St. Albans Road","Richford","VT","05476","P.O. Box 671668 St. Albans Road, Richford, VT 05476","802-848-3434","https://www.cbp.gov/border-security/along-us-borders/border-patrol-sectors/swanton-sector-vermont/richford-station"
"Swanton Station","Station","Swanton Sector Vermont","104 Rave","n Drive Swanton","VT","05488","104 Rave, n Drive Swanton, VT 05488","802-868-3220","https://www.cbp.gov/border-security/along-us-borders/border-patrol-sectors/swanton-sector-vermont/swanton-station"
"Tucson Sector Arizona","Sector","","","","","","2430 S. Swan Road, Tucson, AZ 85711.","520-748-3000","https://www.cbp.gov/border-security/along-us-borders/border-patrol-sectors/tucson-sector-arizona"
"Nogales Station","Station","Tucson Sector Arizona","1500 West","La Quinta RoadNogales","AZ","85621","1500 West, La Quinta RoadNogales, AZ 85621","520-761-2400","https://www.cbp.gov/border-security/along-us-borders/border-patrol-sectors/tucson-sector-arizona/nogales-station"
"Ajo Station","Station","Tucson Sector Arizona","850 North Highway 85Why","Ajo","AZ","85321","850 North Highway 85Why, Ajo, AZ 85321","520-387-7002","https://www.cbp.gov/border-security/along-us-borders/border-patrol-sectors/tucson-sector-arizona/ajo-station"
"Tucson Station","Station","Tucson Sector Arizona","2430 S. Swan Road","Tucson","AZ","85711","2430 S. Swan Road, Tucson, AZ 85711","520-514-4700","https://www.cbp.gov/border-security/along-us-borders/border-patrol-sectors/tucson-sector-arizona/tucson-station"
"Brian A. Terry Station","Station","Tucson Sector Arizona","2136 South Naco Highway","Bisbee","AZ","85603","2136 South Naco Highway, Bisbee, AZ 85603","520-432-5121","https://www.cbp.gov/border-security/along-us-borders/border-patrol-sectors/tucson-sector-arizona/naco-station"
"Sonoita Station","Station","Tucson Sector Arizona","PO Box 37 (mailing)3225 Highway 82","Sonoita","AZ","85637","PO Box 37 (mailing)3225 Highway 82, Sonoita, AZ 85637","520-455-5051","https://www.cbp.gov/border-security/along-us-borders/border-patrol-sectors/tucson-sector-arizona/sonoita-station"
"Douglas Station","Station","Tucson Sector Arizona","1608 S. Kings Highway","Douglas","AZ","85607","1608 S. Kings Highway, Douglas, AZ 85607","520-805-6900","https://www.cbp.gov/border-security/along-us-borders/border-patrol-sectors/tucson-sector-arizona/douglas-station"
"Willcox Station","Station","Tucson Sector Arizona","","","","","","","https://www.cbp.gov/border-security/along-us-borders/border-patrol-sectors/tucson-sector-arizona/willcox-station"
"Casa Grande Station","Station","Tucson Sector Arizona","396 Camino Mercado","Casa Grande","AZ","85122","396 Camino Mercado, Casa Grande, AZ 85122","520-374-4300","https://www.cbp.gov/border-security/along-us-borders/border-patrol-sectors/tucson-sector-arizona/casa-grande-station"
"Three Points Station","Station","Tucson Sector Arizona","16435 West","Ajo Hwy Tucson","AZ","85735","16435 West, Ajo Hwy Tucson, AZ 85735","520-883-4302","https://www.cbp.gov/border-security/along-us-borders/border-patrol-sectors/tucson-sector-arizona/three-points-station"
"Yuma Sector Arizona","Sector","","","","","","4035 S. Ave. A, Yuma AZ 85365","928-341-6500","https://www.cbp.gov/border-security/along-us-borders/border-patrol-sectors/yuma-sector-arizona"
"Blythe Station","Station","Yuma Sector Arizona","16870 W. Hobson Way","Blythe","CA","92226","16870 W. Hobson Way, Blythe, CA 92226","760-921-7000","https://www.cbp.gov/border-security/along-us-borders/border-patrol-sectors/yuma-sector-arizona/blythe-station"
"Yuma Station","Station","Yuma Sector Arizona","4151 S. Avenue A","Yuma","AZ","85365","4151 S. Avenue A, Yuma, AZ 85365","928-341-2800","https://www.cbp.gov/border-security/along-us-borders/border-patrol-sectors/yuma-sector-arizona/yuma-station"
"Wellton Station","Station","Yuma Sector Arizona","10888 Avenue 31E","Wellton","AZ","85356","10888 Avenue 31E, Wellton, AZ 85356","928-785-9364","https://www.cbp.gov/border-security/along-us-borders/border-patrol-sectors/yuma-sector-arizona/wellton-station"